"Company Name","Parent Company Name","Executive First Name","Executive Last Name","Address","City","State","ZIP Code","Legal Name","Record Type","Census Block Group","Company Description","Primary SIC Code","Primary NAICS","Type of Business","Latitude","Longitude"
"23 Mart","","Dave","Benedum","6301 S High St","Lockbourne","OH","43137","","Verified","4","","554101","45712003","Private","039.831668","-083.000944"
"3-C Food Mart","","Shailesh","Patel","5825 Sawmill Rd","Dublin","OH","43017","","Verified","1","","541105","44511003","Private","040.086175","-083.092972"
"3c Plus Food Mart","","Abraham","Hejini","1790 Morse Rd","Columbus","OH","43229","","Verified","4","","541103","44513101","Private","040.061953","-082.971996"
"Adult Supermart","","","","5410 W Broad St","Columbus","OH","43228","","Verified","1","","531104","45511003","Private","039.951763","-083.145004"
"Africa Supermarket","","","","3639 E Livingston Ave","Columbus","OH","43227","","Verified","3","","531104","45511003","Private","039.944899","-082.898689"
"African Market Plus","","Penda","Sillah","4415 Crossroads Ctr","Columbus","OH","43232","AFRICAN MARKET PLUS INC","Verified","1","","541105","44511003","Private","039.920371","-082.878128"
"Afrique Food Warehouse","","","","4376 Karl Rd","Columbus","OH","43224","","Verified","5","","541105","44511003","Private","040.056089","-082.975203"
"Ai-Mustafa Market & Bakery","","","","5435 Bethel Sawmill Ctr","Columbus","OH","43235","","Verified","4","","541105","44511003","Private","040.065951","-083.094260"
"ALDI","ALDI INC","Russ","White","720 W Waterloo St","Canal Winchester","OH","43110","","Verified","1","Visit Your Canal Winchester Aldi For Low Prices On Groceries And Home Goods. From Fresh Produce And Meats To Organic Foods, Beverages And Other Award-Winning Items, Aldi Makes The Flavorful Affordable. Plus, With New Limited-Time Aldi Finds Added To Shelves Each Week, Theres Always Something New To Discover. Shop Online With Curbside Pickup OR Delivery, OR Swing By Your Neighborhood Market At 720 W Waterloo St To Start Saving On Quality Products.","541105","44511003","Private","039.856345","-082.825744"
"ALDI","ALDI INC","Samantha","Deridder","1331 W Mound St","Columbus","OH","43223","","Verified","2","Visit Your Columbus Aldi For Low Prices On Groceries And Home Goods. From Fresh Produce And Meats To Organic Foods, Beverages And Other Award-Winning Items, Aldi Makes The Flavorful Affordable. Plus, With New Limited-Time Aldi Finds Added To Shelves Each Week, Theres Always Something New To Discover. Shop Online With Curbside Pickup OR Delivery, OR Swing By Your Neighborhood Market At 1331 W Mound St To Start Saving On Quality Products.","541105","44511003","Private","039.945478","-083.034099"
"ALDI","ALDI INC","","","2296 Morse Rd","Columbus","OH","43229","","Verified","1","Visit Your Columbus Aldi For Low Prices On Groceries And Home Goods. From Fresh Produce And Meats To Organic Foods, Beverages And Other Award-Winning Items, Aldi Makes The Flavorful Affordable. Plus, With New Limited-Time Aldi Finds Added To Shelves Each Week, Theres Always Something New To Discover. Shop Online With Curbside Pickup OR Delivery, OR Swing By Your Neighborhood Market At 2296 Morse Rd To Start Saving On Quality Products.","541105","44511003","Private","040.061154","-082.959578"
"ALDI","ALDI INC","Linda","Laeufer","2395 Silver Dr","Columbus","OH","43211","","Verified","3","Visit Your Columbus Aldi For Low Prices On Groceries And Home Goods. From Fresh Produce And Meats To Organic Foods, Beverages And Other Award-Winning Items, Aldi Makes The Flavorful Affordable. Plus, With New Limited-Time Aldi Finds Added To Shelves Each Week, Theres Always Something New To Discover. Shop Online With Curbside Pickup OR Delivery, OR Swing By Your Neighborhood Market At 2395 Silver Dr. To Start Saving On Quality Products.","541105","44511003","Private","040.012699","-082.995449"
"ALDI","ALDI INC","Marcus","Hughes","3600 S High St","Columbus","OH","43207","","Verified","1","Visit Your Columbus Aldi For Low Prices On Groceries And Home Goods. From Fresh Produce And Meats To Organic Foods, Beverages And Other Award-Winning Items, Aldi Makes The Flavorful Affordable. Plus, With New Limited-Time Aldi Finds Added To Shelves Each Week, Theres Always Something New To Discover. Shop Online With Curbside Pickup OR Delivery, OR Swing By Your Neighborhood Market At 3600 S High St To Start Saving On Quality Products.","541105","44511003","Private","039.887205","-082.996658"
"ALDI","ALDI INC","Mat","Harvey","4664 Sawmill Rd","Columbus","OH","43220","","Verified","2","Visit Your Columbus Aldi For Low Prices On Groceries And Home Goods. From Fresh Produce And Meats To Organic Foods, Beverages And Other Award-Winning Items, Aldi Makes The Flavorful Affordable. Plus, With New Limited-Time Aldi Finds Added To Shelves Each Week, Theres Always Something New To Discover. Shop Online With Curbside Pickup OR Delivery At Participating Locations, OR Swing By Your Neighborhood Market At 4664 Sawmill Rd To Start Saving On Quality Products.","541105","44511003","Private","040.063232","-083.092289"
"ALDI","ALDI INC","","","5455 N High St","Columbus","OH","43214","","Verified","1","Visit Your Columbus Aldi For Low Prices On Groceries And Home Goods. From Fresh Produce And Meats To Organic Foods, Beverages And Other Award-Winning Items, Aldi Makes The Flavorful Affordable. Plus, With New Limited-Time Aldi Finds Added To Shelves Each Week, Theres Always Something New To Discover. Shop Online With Curbside Pickup OR Delivery, OR Swing By Your Neighborhood Market At 5455 N. High Street To Start Saving On Quality Products.","541105","44511003","Private","040.074183","-083.019448"
"ALDI","ALDI INC","","","5487 W Broad St","Columbus","OH","43228","","Verified","1","Visit Your Columbus Aldi For Low Prices On Groceries And Home Goods. From Fresh Produce And Meats To Organic Foods, Beverages And Other Award-Winning Items, Aldi Makes The Flavorful Affordable. Plus, With New Limited-Time Aldi Finds Added To Shelves Each Week, Theres Always Something New To Discover. Shop Online With Curbside Pickup OR Delivery, OR Swing By Your Neighborhood Market At 5487 W Broad St To Start Saving On Quality Products.","541105","44511003","Private","039.950230","-083.146223"
"ALDI","ALDI INC","","","5531 N Hamilton Rd","Columbus","OH","43230","","Verified","2","Visit Your Columbus Aldi For Low Prices On Groceries And Home Goods. From Fresh Produce And Meats To Organic Foods, Beverages And Other Award-Winning Items, Aldi Makes The Flavorful Affordable. Plus, With New Limited-Time Aldi Finds Added To Shelves Each Week, Theres Always Something New To Discover. Shop Online With Curbside Pickup OR Delivery, OR Swing By Your Neighborhood Market At 5531 N Hamilton Rd To Start Saving On Quality Products.","541105","44511003","Private","040.069505","-082.864034"
"ALDI","ALDI INC","","","2398 Stringtown Rd","Grove City","OH","43123","","Verified","1","Visit Your Grove City Aldi For Low Prices On Groceries And Home Goods. From Fresh Produce And Meats To Organic Foods, Beverages And Other Award-Winning Items, Aldi Makes The Flavorful Affordable. Plus, With New Limited-Time Aldi Finds Added To Shelves Each Week, Theres Always Something New To Discover. Shop Online With Curbside Pickup OR Delivery, OR Swing By Your Neighborhood Market At 2398 Stringtown Road To Start Saving On Quality Products.","541105","44511003","Private","039.880570","-083.066622"
"ALDI","ALDI INC","","","3945 S Hamilton Rd","Groveport","OH","43125","","Verified","3","Visit Your Groveport Aldi For Low Prices On Groceries And Home Goods. From Fresh Produce And Meats To Organic Foods, Beverages And Other Award-Winning Items, Aldi Makes The Flavorful Affordable. Plus, With New Limited-Time Aldi Finds Added To Shelves Each Week, Theres Always Something New To Discover. Shop Online With Curbside Pickup OR Delivery, OR Swing By Your Neighborhood Market At 3945 S Hamilton Rd. To Start Saving On Quality Products.","541105","44511003","Private","039.894030","-082.883410"
"ALDI","ALDI INC","","","1786 Hilliard Rome Rd","Hilliard","OH","43026","","Verified","1","Visit Your Hilliard Aldi For Low Prices On Groceries And Home Goods. From Fresh Produce And Meats To Organic Foods, Beverages And Other Award-Winning Items, Aldi Makes The Flavorful Affordable. Plus, With New Limited-Time Aldi Finds Added To Shelves Each Week, Theres Always Something New To Discover. Shop Online With Curbside Pickup OR Delivery, OR Swing By Your Neighborhood Market At 1786 Hilliard Rome Rd To Start Saving On Quality Products.","541105","44511003","Private","039.989406","-083.148821"
"ALDI","ALDI INC","","","9895 Johnstown Rd","New Albany","OH","43054","","Verified","2","Visit Your New Albany Aldi For Low Prices On Groceries And Home Goods. From Fresh Produce And Meats To Organic Foods, Beverages And Other Award-Winning Items, Aldi Makes The Flavorful Affordable. Plus, With New Limited-Time Aldi Finds Added To Shelves Each Week, Theres Always Something New To Discover. Shop Online With Curbside Pickup OR Delivery, OR Swing By Your Neighborhood Market At 9895 Johnstown Rd To Start Saving On Quality Products.","541105","44511003","Private","040.103165","-082.824360"
"ALDI","ALDI INC","","","8301 E Broad St","Reynoldsburg","OH","43068","","Verified","3","Visit Your Reynoldsburg Aldi For Low Prices On Groceries And Home Goods. From Fresh Produce And Meats To Organic Foods, Beverages And Other Award-Winning Items, Aldi Makes The Flavorful Affordable. Plus, With New Limited-Time Aldi Finds Added To Shelves Each Week, Theres Always Something New To Discover. Shop Online With Curbside Pickup OR Delivery, OR Swing By Your Neighborhood Market At 8301 E Broad St To Start Saving On Quality Products.","541105","44511003","Private","039.985413","-082.781228"
"ALDI","ALDI INC","","","3280 Tremont Rd","Upper Arlington","OH","43221","","Verified","4","Visit Your Upper Arlington Aldi For Low Prices On Groceries And Home Goods. From Fresh Produce And Meats To Organic Foods, Beverages And Other Award-Winning Items, Aldi Makes The Flavorful Affordable. Plus, With New Limited-Time Aldi Finds Added To Shelves Each Week, Theres Always Something New To Discover. Shop Online With Curbside Pickup OR Delivery, OR Swing By Your Neighborhood Market At 3280 Tremont Road To Start Saving On Quality Products.","541105","44511003","Private","040.023654","-083.057792"
"ALDI","ALDI INC","Sarah","Caplinger","5996 Westerville Rd","Westerville","OH","43081","","Verified","3","Visit Your Westerville Aldi For Low Prices On Groceries And Home Goods. From Fresh Produce And Meats To Organic Foods, Beverages And Other Award-Winning Items, Aldi Makes The Flavorful Affordable. Plus, With New Limited-Time Aldi Finds Added To Shelves Each Week, Theres Always Something New To Discover. Shop Online With Curbside Pickup OR Delivery, OR Swing By Your Neighborhood Market At 5996 Westerville Rd To Start Saving On Quality Products.","541105","44511003","Private","040.094984","-082.923793"
"ALDI","ALDI INC","Jetta","Yarger","3831 E Main St","Whitehall","OH","43213","","Verified","2","Visit Your Whitehall Aldi For Low Prices On Groceries And Home Goods. From Fresh Produce And Meats To Organic Foods, Beverages And Other Award-Winning Items, Aldi Makes The Flavorful Affordable. Plus, With New Limited-Time Aldi Finds Added To Shelves Each Week, Theres Always Something New To Discover. Shop Online With Curbside Pickup OR Delivery, OR Swing By Your Neighborhood Market At 3831 E Main St To Start Saving On Quality Products.","541105","44511003","Private","039.955423","-082.896396"
"Alex Market","","Mukhtar","Ahmad","2991 Sullivant Ave","Columbus","OH","43204","","Verified","2","","541105","44511003","Private","039.943089","-083.078480"
"Alma Food Inc","","","","1547 Cleveland Ave","Columbus","OH","43211","ALMA FOOD INC","Verified","2","","541105","44511003","Private","039.997203","-082.978363"
"Ameristop Food Mart","","Mohammed","Obeid","4432 Walford St","Columbus","OH","43224","","Verified","3","","541103","44513101","Private","040.058688","-082.961390"
"Ameristop Food Mart","","Ron","Hoffmann","495 Lancaster Ave","Reynoldsburg","OH","43068","","Verified","3","","554101","45712003","Private","039.973071","-082.811002"
"Apsara Markets","","","","801 Harrisburg Pike","Columbus","OH","43223","","Verified","1","","531104","45511003","Private","039.940699","-083.040505"
"Archana Grocery LLC","","","","1782 Morse Rd","Columbus","OH","43229","ARCHANA GROCERY LLC","Verified","4","","541105","44511003","Private","040.061953","-082.971996"
"Arena Produce Co","","Anthony","Arena","875 Reynolds Ave","Columbus","OH","43201","","Verified","2","","541105","44511003","Private","039.980270","-082.980670"
"Arirang Oriental Market","","Y","Wada","1526 Bethel Rd","Columbus","OH","43220","","Verified","4","","541105","44511003","Private","040.065301","-083.059255"
"Ashtown African Market LLC","","Kwasi A","Poku","2500 Home Acre Dr","Columbus","OH","43231","ASHTOWN AFRICAN MARKET LLC","Verified","3","","541105","44511003","Private","040.098576","-082.949218"
"Aswaq Baladna","","Esmaial","Hamed","2487 E Dublin Granville Rd","Columbus","OH","43229","","Verified","5","","541105","44511003","Private","040.083805","-082.953221"
"Ayan Grocery Store","","Hasan","Osman","585 Wedgewood Dr","Columbus","OH","43228","","Verified","1","","541105","44511003","Private","039.941857","-083.098141"
"B G's Carry Out & Grocery","","Abbullah","Rabi","920 E Weber Rd","Columbus","OH","43211","","Verified","3","","541105","44511003","Private","040.024000","-082.987524"
"Banadiry International","","","","3252 Cleveland Ave # A","Columbus","OH","43224","BANADIRY INTERNATIONAL MARKET INC","Verified","1","","541105","44511003","Private","040.034087","-082.962543"
"Baraka International Market","","Keize","Golongo","3252 Cleveland Ave # A","Columbus","OH","43224","","Verified","1","","541105","44511003","Private","040.034087","-082.962543"
"Bazyan Market & Bakery","","Jalal M","Hardi","5220 Bethel Center Mall","Columbus","OH","43220","BAZYANI MARKET & BAKERY","Verified","4","","541105","44511003","Private","040.064600","-083.060391"
"Beer Frame Carry Out","","","","2676 Courtright Rd","Columbus","OH","43232","","Verified","4","","541105","44511003","Private","039.917775","-082.896167"
"Belvidere Food Mart","","Mike","Besa","126 Belvidere Ave # 2288","Columbus","OH","43223","","Verified","5","","541105","44511003","Private","039.953137","-083.054824"
"Bexley Natural Market","","Austa","Obringer","508 N Cassady Ave","Columbus","OH","43209","BEXLEY NATURAL MARKET","Verified","1","About Market The Bexley Natural Market Is A Not-For-Profit Cooperative Grocery Store Dedicated To Provide Food Of The Highest Possible Nutritional Quality To Our Members And Community. We Provide Many Local And Organic Products, As Well As A Vast Array Of Vitamins And Supplements To Support The Health Of Our Customers. We Like To Support Local Businesses And Farmers By Being A Space IN Which Their Products Are Available. As A Cooperative, Every Member Of The Market Is An Owner And Important Person IN The Health And Functionality Of The Store. The CO-Op's Unique Decision-Making Process Gives A Sense Of True Democracy IN A Society Where Many Important Decisions Are Made By Anonymous Corporate Forces. Anyone Can Shop At The CO-Op, And Anyone Can Become A Member. Stop On By And See What We'Re All About! Bexley Natural Market * 508 N. Cassady * Bexley, OH * ( 614 ) 252-3951","541105","44511003","Private","039.980951","-082.931698"
"Big R Grocery","","Waldo","Tewolde","3420 Bexvie Ave # C","Columbus","OH","43227","","Verified","2","","541105","44511003","Private","039.935962","-082.910479"
"Bishops' Storehouse","CHURCH OF JESUS CHRIST OF LDS","","","4431 Marketing Pl","Groveport","OH","43125","","Verified","4","Bishops' Storehouses Are Used By Bishops Of The Church Of Jesus Christ Of Latter-Day Saints To Fill Orders For Food And Supplies To Care For Members IN Need. (Due To Covid-19, Please Call To Confirm Hours Of Operation.)","832240","62421001","Private","039.883963","-082.889840"
"Bob's Market","","Riad","Soloman","2257 Agler Rd","Columbus","OH","43224","","Verified","1","","541103","44513101","Private","040.026612","-082.951669"
"Bravo","","","","750 E Long St # 1200","Columbus","OH","43203","","Verified","2","","541105","44511003","Private","039.967532","-082.981401"
"Brilista Foods Inc","","Mike","Giunta","1000 Goodale Blvd","Columbus","OH","43212","BRILISTA FOODS CO INC","Verified","2","","541105","44511003","Private","039.974774","-083.030184"
"Brookshire Foodliner","","Ron","Smith","2781 Eakin Rd","Columbus","OH","43204","BROOKSHIRE FOODLINER","Verified","4","","541105","44511003","Private","039.938062","-083.072245"
"Bulkmatic Transport Co","BULKMATIC TRANSPORT CO","","","2271 Williams Rd","Columbus","OH","43207","","Verified","1","","421309","48423017","Private","039.888434","-082.935268"
"Bushman's Food Market","","","","1145 Parsons Ave","Columbus","OH","43206","BUSHMAN'S MARKET","Verified","1","","541105","44511003","Private","039.940177","-082.983686"
"Butcher & Grocer","","Timothy","Struble","1089 W 1st Ave","Grandview Heights","OH","43212","","Verified","2","","541105","44511003","Private","039.979563","-083.033633"
"C-1 Convenient One","","","","3245 E Broad St","Columbus","OH","43209","","Verified","1","","541103","44513101","Private","039.971608","-082.914262"
"Cassady Market","","","","2466 N Cassady Ave","Columbus","OH","43219","CASSADY MARKET LLC","Verified","1","","541105","44511003","Private","040.021715","-082.928157"
"Center Street Market","","Jon","St Julian","5354 Center St","Hilliard","OH","43026","","Verified","2","","541105","44511003","Private","040.034430","-083.159840"
"Chiquitas Imports LLC","","","","2542 Sullivant Ave","Columbus","OH","43204","CHIQUITAS IMPORTS LLC","Verified","5","","541105","44511003","Private","039.945027","-083.066609"
"Circle Mart","","","","1876 Tamarack Cir S","Columbus","OH","43229","","Verified","4","","541103","44513101","Private","040.076425","-082.966957"
"Clintonville Natural Foods","","Azure","Stephens","4398 Indianola Ave","Columbus","OH","43214","CLINTONVILLE NATURAL FOODS","Verified","1","Clintonville Natural Foods Is Your One-Stop Shop IN Columbus, OH, For All Of Your Plant-Based Health Food And Supplement Needs. Our Natural Food Store Features An Extensive Bulk Herbs And Spices Selection, Vegan And Non-Gmo Products, Body Care, Gluten-Free Items, Supplements And Vitamins, And More. We Care About Having A Holistic Approach To Health By Offering A Variety Of Alternative Health Products. Our Staff Is Very Knowledgeable And Able To Answer Questions OR Guide You IN Picking Out The Right Products For Your Needs. We Invite You To Stop By Today To See All That We Have To Offer!","549901","45619103","Private","040.054659","-083.000058"
"Columbus Asia Market Inc","","Jay","Yang","3767 Park Mill Run Dr","Hilliard","OH","43026","COLUMBUS ASIA MARKET INC","Verified","2","","541105","44511003","Private","040.031528","-083.121688"
"Columbus Fish & Seafood WHLS","","Frank","Gonzalez","5249 Trabue Rd","Columbus","OH","43228","","Verified","1","The Seafood Whole Saler.","542101","44525004","Private","039.980926","-083.141175"
"Columbus Preparatory Academy","","","","2220 Eakin Rd","Columbus","OH","43223","","Verified","1","","541105","44511003","Private","039.933815","-083.055998"
"Come & Go Ctr","","Abdelrahman","Ayyad","884 Oakland Park Ave","Columbus","OH","43224","COME & GO CTR INC","Verified","1","","541105","44511003","Private","040.032856","-082.991005"
"Convenient Plus Food Mart","","Choudhary","Ansar","1541 Frebis Ave","Columbus","OH","43206","","Verified","1","","541103","44513101","Private","039.933749","-082.954604"
"Convenient Plus Food Mart","","","","2800 Valleyview Dr","Columbus","OH","43204","CONVENIENT PLUS FOOD MART","Verified","1","","541105","44511003","Private","039.963431","-083.076903"
"Convenient Plus Food Mart","","Laura","Ansar","5435 E Livingston Ave","Columbus","OH","43232","","Verified","2","","541105","44511003","Private","039.942700","-082.849725"
"Cook's Oakland Park IGA","","Dave","Cook","1225 Oakland Park Ave","Columbus","OH","43224","","Verified","1","","541105","44511003","Private","040.031843","-082.980772"
"Costco Wholesale","COSTCO WHOLESALE CORP","Victor","Curtis","3888 Stelzer Rd","Columbus","OH","43219","","Verified","1","Members-Only Warehouse Selling A Huge Variety Of Items Including Bulk Groceries, Electronics & More.","531110","45521101","Branch of Public Company","040.053433","-082.904752"
"Coughlin Express Mart","","Sharif","Ali","1505 Schrock Rd","Columbus","OH","43229","","Verified","3","","541105","44511003","Private","040.104845","-082.976350"
"Country Food Store","","","","3861 Sullivant Ave","Columbus","OH","43228","COUNTRY FOOD STORE","Verified","1","","541105","44511003","Private","039.941517","-083.101429"
"Dairy Mart","","Chaudhary","Ansar","4251 Kimberly Pkwy","Columbus","OH","43232","","Verified","1","","554101","45712003","Private","039.925659","-082.882938"
"Dairy Treats","","","","657 E 5th Ave","Columbus","OH","43201","","Verified","1","","024101","11212001","Private","039.986248","-082.987332"
"De Store","","","","5273 Gender Rd","Canal Winchester","OH","43110","","Verified","2","","541105","44511003","Private","039.875915","-082.826854"
"Dire Dawa Grocery Store","","","","4513 E Main St","Columbus","OH","43213","","Verified","3","","541105","44511003","Private","039.955088","-082.877847"
"Dirmarket","","Belay","Mamo","4517 E Main St","Columbus","OH","43213","","Verified","3","","541105","44511003","Private","039.955088","-082.877847"
"Discount Drug Mart","DISCOUNT DRUG MART INC","Steve","Reitmann","5599 N Hamilton Rd","Columbus","OH","43230","","Verified","3","Founded IN 1969, Discount Drug Mart Is A Drug Store Chain Operating More Than 70 Stores Across Ohio Counties, Besides Providing A Variety Of Online Services. Based IN Columbus, Ohio, The Store Provides Over 40,000 Products At Discounted Prices, Including Health And Beauty Aids, Household Merchandise, Small Appliances, Paint, Hardware, Magazines, Groceries, Frozen Foods, School And Office Supplies And More. Its Pharmacies Offer Electronic Prescription Transfers, Besides Disease Management Along With Various Testing And Screening Services. Additionally, Discount Drug Mart Offers A Range Of Health Care Services, Including Diabetic Care Products, Respiratory And Inhalation Supplies, Wheelchairs And Ambulatory Aids, Among Others.","591205","45611009","Private","040.070694","-082.864118"
"Discount Drug Mart","DISCOUNT DRUG MART INC","Tim","Schweinsberg","2290 Stringtown Rd","Grove City","OH","43123","","Verified","1","","591205","45611009","Private","039.880291","-083.064343"
"E & E Market","","Richard","Sam","778 E Hudson St","Columbus","OH","43211","E & E MARKET","Verified","2","","541105","44511003","Private","040.014877","-082.989705"
"East Main Mart","","","","4341 E Main St","Columbus","OH","43213","","Verified","3","","541105","44511003","Private","039.955194","-082.881737"
"East Pointe","","","","6916-7000 E Broad Street","Columbus","OH","43213","","Verified","1","East Pointe, Your Favorite Mix Of Shops And Dining Options IN Columbus.","541105","44511003","Private","039.961435","-082.881770"
"El Girafol Grocery Store","","Gabriel","Calin","1571 Lockbourne Rd","Columbus","OH","43207","","Verified","3","","541105","44511003","Private","039.933709","-082.964948"
"Englefield Oil Co","ENGLEFIELD OIL CO","Cliff","Arnold","1347 Olentangy River Rd","Columbus","OH","43212","","Verified","3","","517206","42472014","Private","039.987621","-083.026362"
"Ernie's Carry Out","","John","Kight","4340 Broadway","Grove City","OH","43123","","Verified","4","","541103","44513101","Private","039.875977","-083.098525"
"Eureka Market","","Iyad","Murib","192 S Eureka Ave","Columbus","OH","43204","","Verified","4","","541105","44511003","Private","039.951327","-083.064972"
"Express Mart","","","","900 E 5th Ave","Columbus","OH","43201","","Verified","3","","541105","44511003","Private","039.986477","-082.980561"
"Fast & Friendly","","Sam","Rabadi","506 Saint Clair Ave","Columbus","OH","43203","FAST & FRIENDLY MARKET","Verified","2","","541105","44511003","Private","039.975182","-082.980165"
"Fine Line Market","","Mahesh","Bhatnagar","1333 Lockbourne Rd","Columbus","OH","43206","","Verified","3","","541105","44511003","Private","039.938455","-082.964417"
"Flichia Wholesale Distributing","","Gus","Flichia","3100 E 17th Ave","Columbus","OH","43219","","Verified","1","","206401","31135201","Private","039.998285","-082.924735"
"Food Mart","","Mohommad","Ansar","3351 E Main St","Columbus","OH","43213","","Verified","1","","541105","44511003","Private","039.956035","-082.908827"
"Food Mart","","","","6351 Tussing Rd","Reynoldsburg","OH","43068","","Verified","1","","541105","44511003","Private","039.925844","-082.829278"
"Food Works Inc","","Mark","Abner","71 E Wilson Bridge Rd # A1","Worthington","OH","43085","FOOD WORKS INC","Verified","1","","541105","44511003","Private","040.107112","-083.013977"
"Foodmart Express","","Nasr","Alhassah","2714 Sullivant Ave","Columbus","OH","43204","FOODMART EXPRESS","Verified","2","","541105","44511003","Private","039.944283","-083.071122"
"Four Seas Asian Food Svc","","Kathy","Law","1313 Alum Creek Dr","Columbus","OH","43209","","Verified","1","","549917","44529803","Private","039.941955","-082.945175"
"Frank's Fish & Seafood Market","","Frank","Gonzalez","5251 Trabue Rd","Columbus","OH","43228","FRANK'S FISH & SEAFOOD MARKET","Verified","2","Fresh And Frozen Fish And Seafood Sales","542101","44525004","Private","039.935867","-083.138631"
"Fresh Thyme Market","MEIJER INC","Don","Hersman","6670 Sawmill Rd","Columbus","OH","43235","","Verified","1","Fresh Thyme Market Is A Grocery Store And Natural Food Marketplace IN Columbus, OH That Provides Healthy Food And Healthy Values, With An Atmosphere Reminiscent Of Your Local Farmers Market. We Are Committed To Offering A Variety Of Clean Label Products, Free From Artificial Colors, Flavors OR Preservatives, As Well As Many Organic Options. We Carry Many Items Catering To Those Following Vegan, Paleo, Keto, Vegetarian OR Wheat- And Gluten-Free Diets, As Well As Anyone On A Journey Towards Healthier, More Delicious Living.","541105","44511003","Private","040.103144","-083.089425"
"Fresh Thyme Market","MEIJER INC","","","1125 N Hamilton Rd","Gahanna","OH","43230","","Verified","3","Fresh Thyme Market Is A Grocery Store And Natural Food Marketplace IN Gahanna, OH That Provides Healthy Food And Healthy Values, With An Atmosphere Reminiscent Of Your Local Farmers Market. We Are Committed To Offering A Variety Of Clean Label Products, Free From Artificial Colors, Flavors OR Preservatives, As Well As Many Organic Options. We Carry Many Items Catering To Those Following Vegan, Paleo, Keto, Vegetarian OR Wheat- And Gluten-Free Diets, As Well As Anyone On A Journey Towards Healthier, More Delicious Living.","541105","44511003","Private","040.048715","-082.865889"
"Fresh Thyme Market","MEIJER INC","","","933 High St","Worthington","OH","43085","","Verified","2","Fresh Thyme Market Is A Grocery Store And Natural Food Marketplace IN Worthington, OH That Provides Healthy Food And Healthy Values, With An Atmosphere Reminiscent Of Your Local Farmers Market. We Are Committed To Offering A Variety Of Clean Label Products, Free From Artificial Colors, Flavors OR Preservatives, As Well As Many Organic Options. We Carry Many Items Catering To Those Following Vegan, Paleo, Keto, Vegetarian OR Wheat- And Gluten-Free Diets, As Well As Anyone On A Journey Towards Healthier, More Delicious Living.","541105","44511003","Private","040.093830","-083.019013"
"Getgo Gas Sta + Wetgo Carwash","GIANT EAGLE INC","Leif","Smith","2888 Bethel Rd","Columbus","OH","43220","","Verified","4","Getgo Cafe + Market Brings You Delicious, Made-To-Order Foods, Along With Everyday Conveniences, Including Gas And A Carwash, All Under One Roof!","541103","44513101","Private","040.065577","-083.095650"
"Getgo Gas Sta + Wetgo Carwash","GIANT EAGLE INC","Troy","Bowers","6725 Perimeter Loop Rd","Dublin","OH","43017","","Verified","2","Getgo Cafe + Market Brings You Delicious, Made-To-Order Foods, Along With Everyday Conveniences, Including Gas And A Carwash, All Under One Roof!","541103","44513101","Private","040.102610","-083.158860"
"Getgo Gas Sta + Wetgo Carwash","GIANT EAGLE INC","Sandra","Blanton","6780 Hayden Run Rd","Hilliard","OH","43026","","Verified","2","Getgo Cafe + Market Brings You Delicious, Made-To-Order Foods, Along With Everyday Conveniences, Including Gas And A Carwash, All Under One Roof!","541103","44513101","Private","040.060817","-083.181687"
"Getgo Gas Station","GIANT EAGLE INC","Cayla","Brown","2165 Stringtown Rd","Grove City","OH","43123","","Verified","1","Getgo Cafe + Market Brings You Delicious, Made-To-Order Foods, Along With Everyday Conveniences, Including Gas And A Carwash, All Under One Roof!","541103","44513101","Private","039.877779","-083.061418"
"Getgo Gas Station","GIANT EAGLE INC","Chris","Jefferson","1640 Fishinger Rd","Upper Arlington","OH","43221","","Verified","2","Getgo Cafe + Market Brings You Delicious, Made-To-Order Foods, Along With Everyday Conveniences, Including Gas And A Carwash, All Under One Roof!","541103","44513101","Private","040.025585","-083.057636"
"Ghion Grocery","","","","1729 Brice Rd","Reynoldsburg","OH","43068","GIHON GROCERY LLC","Verified","1","","541105","44511003","Private","039.944146","-082.830295"
"Giant Eagle","GIANT EAGLE INC","Louis","Lao","1250 N Hamilton Rd","Columbus","OH","43230","","Verified","3","Giant Eagle Grocery Stores Have Been Providing Shoppers With Fresh, High Quality Foods At Everyday Low Prices Since 1931. We Offer A Wide Range Of Products And Services, From IN-Store Pharmacies To Our Rewards Program To Grocery Pickup And Delivery. Whether Your Grocery List Includes Fresh Produce, Household Essentials, Deli, Bakery OR Beyond, Our Commitment To Quality And Value Ensures You'Ll Always Get The Most For Your Money. Plus, You Can Even Earn Rewards On Every Purchase And Save Big On Groceries OR Gas With The Myperks Loyalty Program.","541105","44511003","Private","040.051163","-082.862686"
"Giant Eagle","GIANT EAGLE INC","Ryan","Gress","280 E Whittier St","Columbus","OH","43206","","Verified","2","At Giant Eagle IN Columbus At 280 E. Whittier Street, We Take Great Pride IN Serving Our Loyal Customers And Supporters By Offering Great Customer Service And More Than 20,000 - 60,000 Unique Items IN Our Supermarket. Founded IN 1931, Giant Eagle Is One Of The 40 Largest Privately-Held And Family-Operated Companies IN The Usa. Giant Eagle Serves More Than Five Million Customers Annually Through Nearly 400 Retail Locations IN Pennsylvania, Ohio, West Virginia And Maryland. Giant Eagle Is Based IN Pittsburgh, Pa.","541105","44511003","Private","039.945442","-082.989338"
"Giant Eagle","GIANT EAGLE INC","Andrew","Cuddy","2801 N High St","Columbus","OH","43202","","Verified","4","Giant Eagle Grocery Stores Have Been Providing Shoppers With Fresh, High Quality Foods At Everyday Low Prices Since 1931. We Offer A Wide Range Of Products And Services, From IN-Store Pharmacies To Our Rewards Program To Grocery Pickup And Delivery. Whether Your Grocery List Includes Fresh Produce, Household Essentials, Deli, Bakery OR Beyond, Our Commitment To Quality And Value Ensures You'Ll Always Get The Most For Your Money. Plus, You Can Even Earn Rewards On Every Purchase And Save Big On Groceries OR Gas With The Myperks Loyalty Program.","541105","44511003","Private","040.019056","-083.013386"
"Giant Eagle","GIANT EAGLE INC","Eduardo Ber","Jimenez","2900 Stelzer Rd","Columbus","OH","43219","","Verified","1","At Giant Eagle IN Columbus At 2900 Stelzer Road, We Take Great Pride IN Serving Our Loyal Customers And Supporters By Offering Great Customer Service And More Than 20,000 - 60,000 Unique Items IN Our Supermarket. Founded IN 1931, Giant Eagle Is One Of The 40 Largest Privately-Held And Family-Operated Companies IN The Usa. Giant Eagle Serves More Than Five Million Customers Annually Through Nearly 400 Retail Locations IN Pennsylvania, Ohio, West Virginia And Maryland. Giant Eagle Is Based IN Pittsburgh, Pa.","541105","44511003","Private","040.031832","-082.908197"
"Giant Eagle","GIANT EAGLE INC","Ilona","Relle","4747 Sawmill Rd # 1","Columbus","OH","43220","","Verified","3","At Giant Eagle IN Columbus At 4747 Sawmill Road, We Take Great Pride IN Serving Our Loyal Customers And Supporters By Offering Great Customer Service And More Than 20,000 - 60,000 Unique Items IN Our Supermarket. Founded IN 1931, Giant Eagle Is One Of The 40 Largest Privately-Held And Family-Operated Companies IN The Usa. Giant Eagle Serves More Than Five Million Customers Annually Through Nearly 400 Retail Locations IN Pennsylvania, Ohio, West Virginia And Maryland. Giant Eagle Is Based IN Pittsburgh, Pa.","541105","44511003","Private","040.064107","-083.095824"
"Giant Eagle","GIANT EAGLE INC","Robert","Browning","4780 W Broad St","Columbus","OH","43228","","Verified","3","Giant Eagle Grocery Stores Have Been Providing Shoppers With Fresh, High Quality Foods At Everyday Low Prices Since 1931. We Offer A Wide Range Of Products And Services, From IN-Store Pharmacies To Our Rewards Program To Grocery Pickup And Delivery. Whether Your Grocery List Includes Fresh Produce, Household Essentials, Deli, Bakery OR Beyond, Our Commitment To Quality And Value Ensures You'Ll Always Get The Most For Your Money. Plus, You Can Even Earn Rewards On Every Purchase And Save Big On Groceries OR Gas With The Myperks Loyalty Program.","541105","44511003","Private","039.953692","-083.128633"
"Giant Eagle","GIANT EAGLE INC","Michelle","Holt","6867 E Broad St","Columbus","OH","43213","","Verified","3","Giant Eagle Grocery Stores Have Been Providing Shoppers With Fresh, High Quality Foods At Everyday Low Prices Since 1931. We Offer A Wide Range Of Products And Services, From IN-Store Pharmacies To Our Rewards Program To Grocery Pickup And Delivery. Whether Your Grocery List Includes Fresh Produce, Household Essentials, Deli, Bakery OR Beyond, Our Commitment To Quality And Value Ensures You'Ll Always Get The Most For Your Money. Plus, You Can Even Earn Rewards On Every Purchase And Save Big On Groceries OR Gas With The Myperks Loyalty Program.","541105","44511003","Private","039.980714","-082.820470"
"Giant Eagle","GIANT EAGLE INC","Donna","Brobst","777 Neil Ave","Columbus","OH","43215","","Verified","1","At Giant Eagle IN Columbus At 777 Neil Avenue, We Take Great Pride IN Serving Our Loyal Customers And Supporters By Offering Great Customer Service And More Than 20,000 - 60,000 Unique Items IN Our Supermarket. Founded IN 1931, Giant Eagle Is One Of The 40 Largest Privately-Held And Family-Operated Companies IN The Usa. Giant Eagle Serves More Than Five Million Customers Annually Through Nearly 400 Retail Locations IN Pennsylvania, Ohio, West Virginia And Maryland. Giant Eagle Is Based IN Pittsburgh, Pa.","541105","44511003","Private","039.976866","-083.012451"
"Giant Eagle","GIANT EAGLE INC","Conner","Monahan","2173 Stringtown Rd","Grove City","OH","43123","","Verified","1","Giant Eagle Grocery Stores Have Been Providing Shoppers With Fresh, High Quality Foods At Everyday Low Prices Since 1931. We Offer A Wide Range Of Products And Services, From IN-Store Pharmacies To Our Rewards Program To Grocery Pickup And Delivery. Whether Your Grocery List Includes Fresh Produce, Household Essentials, Deli, Bakery OR Beyond, Our Commitment To Quality And Value Ensures You'Ll Always Get The Most For Your Money. Plus, You Can Even Earn Rewards On Every Purchase And Save Big On Groceries OR Gas With The Myperks Loyalty Program.","541105","44511003","Private","039.876728","-083.061750"
"Giant Eagle","GIANT EAGLE INC","Lorie","Shaw","3841 S Hamilton Rd","Groveport","OH","43125","","Verified","3","Giant Eagle Grocery Stores Have Been Providing Shoppers With Fresh, High Quality Foods At Everyday Low Prices Since 1931. We Offer A Wide Range Of Products And Services, From IN-Store Pharmacies To Our Rewards Program To Grocery Pickup And Delivery. Whether Your Grocery List Includes Fresh Produce, Household Essentials, Deli, Bakery OR Beyond, Our Commitment To Quality And Value Ensures You'Ll Always Get The Most For Your Money. Plus, You Can Even Earn Rewards On Every Purchase And Save Big On Groceries OR Gas With The Myperks Loyalty Program.","541105","44511003","Private","039.896657","-082.884602"
"Giant Eagle","GIANT EAGLE INC","Larry","Genheimer","6700 Hayden Run Rd","Hilliard","OH","43026","","Verified","2","Giant Eagle Grocery Stores Have Been Providing Shoppers With Fresh, High Quality Foods At Everyday Low Prices Since 1931. We Offer A Wide Range Of Products And Services, From IN-Store Pharmacies To Our Rewards Program To Grocery Pickup And Delivery. Whether Your Grocery List Includes Fresh Produce, Household Essentials, Deli, Bakery OR Beyond, Our Commitment To Quality And Value Ensures You'Ll Always Get The Most For Your Money. Plus, You Can Even Earn Rewards On Every Purchase And Save Big On Groceries OR Gas With The Myperks Loyalty Program.","541105","44511003","Private","040.061260","-083.179880"
"Giant Eagle","GIANT EAGLE INC","Drew","Carpenter","5461 New Albany Rd W","New Albany","OH","43054","","Verified","3","At Giant Eagle IN New Albany At 5461 New Albany Road West, We Take Great Pride IN Serving Our Loyal Customers And Supporters By Offering Great Customer Service And More Than 20,000 - 60,000 Unique Items IN Our Supermarket. Founded IN 1931, Giant Eagle Is One Of The 40 Largest Privately-Held And Family-Operated Companies IN The Usa. Giant Eagle Serves More Than Five Million Customers Annually Through Nearly 400 Retail Locations IN Pennsylvania, Ohio, West Virginia And Maryland. Giant Eagle Is Based IN Pittsburgh, Pa.","541105","44511003","Private","040.093208","-082.825646"
"Giant Eagle Market District","GIANT EAGLE INC","Jeremy","Hamed","6700 Perimeter Loop Rd","Dublin","OH","43017","","Verified","2","Market District Supermarket At 6700 Perimeter Loop Road IN Dublin Offers Specialty And Unique Items Not Found Elsewhere IN An Environment Where Customers' Passion For Food Can Be Cultivated By A Staff Of Food Experts. IN More Than 12 Locations IN Southwestern Pennsylvania And Ohio, The Market District Stores Feature Teams Of Chefs And Other Culinary Professionals Preparing Fresh Foods From Scratch Every Day. Market District Also Offers Customers The Rare Opportunity To Find Natural, Organic, Specialty And Other Unique Items Paired With The Convenience Of Favorite National Brands And Everyday Needs All Under The Same Roof.","541105","44511003","Private","040.102763","-083.155888"
"Gifted African Market","","","","2311 S Hamilton Rd","Columbus","OH","43232","GIFTED AFRICAN MARKET LLC","Verified","1","","541105","44511003","Private","039.927168","-082.880317"
"Gleason Market","","Azzam","Kittneh","1004 W Rich St","Columbus","OH","43223","","Verified","4","","541103","44513101","Private","039.954515","-083.026526"
"Glen Gary Carryout","","Dinesh","Patell","5992 Westerville Rd","Westerville","OH","43081","GLENGARY CARRYOUT LTD","Verified","3","","592103","44532005","Private","040.093819","-082.923973"
"Go-Ceries!","","","","2840 Marcellus Dr","Columbus","OH","43219","","Verified","1","","541105","44511003","Private","040.031907","-082.905480"
"Good Deal Market","","Ahmed","Abdul","2210 Morse Rd # A3","Columbus","OH","43229","","Verified","1","","541105","44511003","Private","040.061154","-082.959578"
"Gordon Food Svc Store","GORDON FOOD SVC INC","Brandon","Boehle","5700 Columbus Sq","Columbus","OH","43231","","Verified","3","From Our Vast Selection And Remarkable Value, To Our Fresh And Local Products And Home Ordering OR Business Ordering Services, We'Re Here To Help You Do More With Less.","531110","45521101","Private","040.086904","-082.948696"
"Gordon Food Svc Store","GORDON FOOD SVC INC","Samantha","Cisco","3901 W Dublin Granville Rd","Dublin","OH","43017","","Verified","2","From Our Vast Selection And Remarkable Value, To Our Fresh And Local Products And Home Ordering OR Business Ordering Services, We'Re Here To Help You Do More With Less.","531110","45521101","Private","040.098263","-083.095645"
"Gordon Food Svc Store","GORDON FOOD SVC INC","Brad","Webster","1464 Stringtown Rd","Grove City","OH","43123","","Verified","2","From Our Vast Selection And Remarkable Value, To Our Fresh And Local Products And Home Ordering OR Business Ordering Services, We'Re Here To Help You Do More With Less.","531110","45521101","Private","039.878336","-083.035888"
"Gordon Food Svc Store","GORDON FOOD SVC INC","Brad","Moore","1935 Hilliard Rome Rd","Hilliard","OH","43026","","Verified","2","From Our Vast Selection And Remarkable Value, To Our Fresh And Local Products And Home Ordering OR Business Ordering Services, We'Re Here To Help You Do More With Less.","531110","45521101","Private","039.991087","-083.152619"
"Gordon Food Svc Store","GORDON FOOD SVC INC","Adam","Slater","6375 Tussing Rd","Reynoldsburg","OH","43068","","Verified","1","From Our Vast Selection And Remarkable Value, To Our Fresh And Local Products And Home Ordering OR Business Ordering Services, We'Re Here To Help You Do More With Less.","531110","45521101","Private","039.926570","-082.828327"
"Graffiti Foods LTD","","Phil","Griesinger","333 Outerbelt St","Columbus","OH","43213","","Verified","2","","209903","31199906","Private","039.988152","-082.831402"
"Great Miami Market","","Mike","Rasoul","5121 E Main St","Columbus","OH","43213","GREAT MIAMI MARKET","Verified","3","","541103","44513101","Private","039.954464","-082.861164"
"Grocery Gazelle","","Erika","Wright","520 S State St # B","Westerville","OH","43081","","Verified","1","Your Groceries...Delivered","541105","44511003","Private","040.112208","-082.925919"
"Hague Food Mart","","","","839 N Hague Ave","Columbus","OH","43204","HAGUE FOOD MART","Verified","4","","541105","44511003","Private","039.971457","-083.081023"
"Halal Mediterranean Food","","Raed","Kweik","3652 Main St","Hilliard","OH","43026","","Verified","1","","514105","42441005","Private","040.026373","-083.159953"
"Hall-Mart Food Store","","Mike","Agourrame","1448 Courtright Rd","Columbus","OH","43227","","Verified","1","","554101","45712003","Private","039.942827","-082.896707"
"Hamilton General Store","","Amir","Chaudhry","4980 Lockbourne Rd","Lockbourne","OH","43137","","Verified","1","","541105","44511003","Private","039.860815","-082.969904"
"Hanmaoom","","Han","Maoom","764 Bethel Rd","Columbus","OH","43214","","Verified","2","","541105","44511003","Private","040.063953","-083.040227"
"Heart Food Pantry","","","","6475 E Main St # 101","Reynoldsburg","OH","43068","","Verified","1","","541105","44511003","Private","039.953425","-082.824421"
"High Stop Food","","Andy","Patel","1290 S High St","Columbus","OH","43206","HIGH STOP FOOD MART","Verified","3","","541103","44513101","Private","039.935850","-082.995403"
"Hilliard Farm Market","","","","6188 Pollard Place Dr","Hilliard","OH","43026","","Verified","2","","541105","44511003","Private","040.045439","-083.184101"
"Hills Market","","Amanda","Anderson","7860 Olentangy River Rd","Columbus","OH","43235","","Verified","3","We Are A Locally-Owned Specialty Grocery Store IN Columbus, Ohio. We Feature Beer And Wine Tastings, As Well As Locally Grown And Gourmet Foods. We Love Food, Ohio And Our Community. We Have Local Events Daily And Offer Great Themed Nights As Well. Check Out Our Large Selection Today!","541105","44511003","Private","040.125040","-083.036570"
"Hills Market Downtown","","Amanda","Anderson","95 N Grant Ave","Columbus","OH","43215","","Verified","3","A Locally-Owned Specialty Grocery Store IN Columbus, Ohio. We Feature Beer And Wine Tastings, As Well As Locally Grown And Gourmet Foods. We Love Food, Ohio And Our Community. We Have Local Events Daily And Offer Great Themed Nights As Well. Check Out Our Large Selection Today!","541105","44511003","Private","039.965370","-082.991853"
"Home Market","","Mustafe","Hamed","2386 Groveport Rd","Columbus","OH","43207","","Verified","1","","541105","44511003","Private","039.914492","-082.981234"
"Home Storage Ctr","CHURCH OF JESUS CHRIST OF LDS","","","4431 Marketing Pl","Groveport","OH","43125","","Verified","4","Home Storage Centers Help Members Of The Church Of Jesus Christ Of Latter-Day Saints And Others Purchase A Basic Supply Of Food For Longer-Term Food Storage Needs. Please Note: Our Home Storage Centers No Longer Accept Cash OR Checks. Credit (Excluding American Express) OR Debit Cards Are Accepted.","541105","44511003","Private","039.883963","-082.889840"
"Hometown Market","","Shahid","Akhtar","429 Industrial Mile Rd","Columbus","OH","43228","","Verified","1","","541105","44511003","Private","039.944625","-083.113249"
"HRH Them To Grocers !!","","","","2245 N Bank Dr","Columbus","OH","43220","","Verified","1","","541105","44511003","Private","040.056108","-083.080708"
"HTH Farm Market","","","","2340 W Dublin Granville Rd","Columbus","OH","43235","","Verified","3","Ohio Produce, Amish Cheese, Local Baked Goods","526122","45521902","Private","040.090664","-083.052843"
"Hubert's Polish Kitchen","","Hubert","Wiliamowski","59 Spruce St","Columbus","OH","43215","","Verified","1","","581208","72251117","Private","039.971885","-083.004326"
"Hudson Express Carryout","","Si","Saqfelhat","1818 E Hudson St","Columbus","OH","43211","HUDSON EXPRESS CARRY OUT","Verified","2","","581208","72251117","Private","040.013743","-082.960992"
"Hudson Market","","Adam","Milhem","1080 E Hudson St","Columbus","OH","43211","","Verified","1","","874213","54161303","Private","040.014593","-082.981073"
"Image Grocery LLC","","","","4669 Morse Centre Rd","Columbus","OH","43229","IMAGE GROCERY LLC","Verified","1","","541105","44511003","Private","040.062135","-082.964167"
"India Grocers Inc","","Amrish","Patel","5843 Sawmill Rd","Dublin","OH","43017","BIREN 99 ENTERPRISES INC","Verified","1","","541105","44511003","Private","040.086175","-083.092972"
"Indreni Mart","","","","1573 E Dublin Granville Rd","Columbus","OH","43229","","Verified","1","","541105","44511003","Private","040.085508","-082.977410"
"Istanbul Market","","Kerem","Dirlikli","5221 Bethel Center Mall","Columbus","OH","43220","ISTANBUL MARKET INC","Verified","4","","541105","44511003","Private","040.064600","-083.060391"
"It's All Natural! Temple Store","","Lee","Ng","2891 E Dublin Granville Rd","Columbus","OH","43231","","Verified","2","Offers Specialty Plant-Based Food Products, Personal Care And Eco-Friendly Household Items.","539901","45521908","Private","040.081476","-082.939615"
"J & N Market","","Yaser","Almahmoud","1541 E Whittier St","Columbus","OH","43206","","Verified","3","","541105","44511003","Private","039.942839","-082.955139"
"JF Baker's Sons Roofing Co","","Roger","Baker","1496 Delashmut Ave","Columbus","OH","43212","","Verified","1","J.F. Baker's Sons Roofing Company Provides Residential And Commercial Roofing Services To The Columbus, OH Area.","176109","23816014","Private","039.990203","-083.030047"
"Jr J's Drive Thru","","","","2179 Parkwood Ave","Columbus","OH","43211","","Verified","1","","581208","72251117","Private","040.012564","-082.956912"
"Jubilee Market & Cafe","","Susan","Huff","1160 W Broad St","Columbus","OH","43222","","Verified","1","","541105","44511003","Private","039.959022","-083.031724"
"Julian Foods","","","","3277 W Broad St","Columbus","OH","43204","JULIAN FOODS LLC","Verified","4","","599301","45999102","Private","039.954012","-083.087819"
"Julian Grocery Market","","","","3279 W Broad St","Columbus","OH","43204","","Verified","4","","541105","44511003","Private","039.954012","-083.087819"
"Kahiki Foods","","Troy","Mash","3354 E Broad St","Columbus","OH","43213","","Verified","1","","541105","44511003","Private","039.972558","-082.911483"
"Kal Kan Foods Inc","","","","5115 Fisher Rd","Columbus","OH","43228","KAL KAN FOODS INC","Verified","1","","541105","44511003","Private","039.972680","-083.135990"
"Kamana Grocery","","Surya","Khatiwada","6840 Refugee Rd","Canal Winchester","OH","43110","","Verified","3","","541105","44511003","Private","039.911810","-082.818020"
"Kamana Grocery LLC","","Surya","Khatiwoda","7175 E Main St","Reynoldsburg","OH","43068","KAMANA GROCERY LLC","Verified","1","","541105","44511003","Private","039.954778","-082.806148"
"Kaneshi Market","","","","4257 Eastland Square Dr","Columbus","OH","43232","","Verified","3","","541105","44511003","Private","039.912500","-082.882506"
"Kaneshil Market","","Billy","Agyeman","2543 Franksway St","Columbus","OH","43232","","Verified","1","","541105","44511003","Private","039.922856","-082.882002"
"Kelley's Market","","Mike","George","3453 Parsons Ave","Columbus","OH","43207","","Verified","1","","541105","44511003","Private","039.891975","-082.987427"
"Kenny Road Market","","John","Wenner","3067 Landen Farm Rd W # A","Hilliard","OH","43026","","Verified","3","","541105","44511003","Private","040.014286","-083.178441"
"Kroger","KROGER CO","Lee","Wilson","3588 Gender Rd","Canal Winchester","OH","43110","","Verified","1","Kroger Offers Thousands Of Quality Food And Household Products From Your Favorite Brands And Companies. From Fresh Produce, Meats And Seafood To Dairy, Home Goods And Pharmaceutical Needs, Kroger Is Your One Stop For Savings.","541105","44511003","Branch of Public Company","039.908311","-082.822610"
"Kroger","KROGER CO","Stan","Mentos","6095 Gender Rd","Canal Winchester","OH","43110","","Verified","1","Kroger Offers Thousands Of Quality Food And Household Products From Your Favorite Brands And Companies. From Fresh Produce, Meats And Seafood To Dairy, Home Goods And Pharmaceutical Needs, Kroger Is Your One Stop For Savings.","541105","44511003","Branch of Public Company","039.855587","-082.831888"
"Kroger","KROGER CO","Richard","Dublin","1350 N High St","Columbus","OH","43201","","Verified","2","Kroger Offers Thousands Of Quality Food And Household Products From Your Favorite Brands And Companies. From Fresh Produce, Meats And Seafood To Dairy, Home Goods And Pharmaceutical Needs, Kroger Is Your One Stop For Savings.","541105","44511003","Branch of Public Company","039.989268","-083.005305"
"Kroger","KROGER CO","Craig","Neal","1375 Chambers Rd","Columbus","OH","43212","","Verified","1","Kroger Offers Thousands Of Quality Food And Household Products From Your Favorite Brands And Companies. From Fresh Produce, Meats And Seafood To Dairy, Home Goods And Pharmaceutical Needs, Kroger Is Your One Stop For Savings.","541105","44511003","Branch of Public Company","039.992591","-083.043627"
"Kroger","KROGER CO","Heather","Mccune","1441 Parsons Ave","Columbus","OH","43207","","Verified","2","Kroger Offers Thousands Of Quality Food And Household Products From Your Favorite Brands And Companies. From Fresh Produce, Meats And Seafood To Dairy, Home Goods And Pharmaceutical Needs, Kroger Is Your One Stop For Savings.","541105","44511003","Branch of Public Company","039.934335","-082.985449"
"Kroger","KROGER CO","Shannon","Feigenbaum","150 W Sycamore St","Columbus","OH","43215","","Verified","2","Kroger Offers Thousands Of Quality Food And Household Products From Your Favorite Brands And Companies. From Fresh Produce, Meats And Seafood To Dairy, Home Goods And Pharmaceutical Needs, Kroger Is Your One Stop For Savings.","541105","44511003","Branch of Public Company","039.949653","-083.001958"
"Kroger","KROGER CO","Sara","Rupert","1585 Georgesville Square Dr","Columbus","OH","43228","","Verified","1","Kroger Offers Thousands Of Quality Food And Household Products From Your Favorite Brands And Companies. From Fresh Produce, Meats And Seafood To Dairy, Home Goods And Pharmaceutical Needs, Kroger Is Your One Stop For Savings.","541105","44511003","Branch of Public Company","039.919289","-083.120032"
"Kroger","KROGER CO","","","1745 Morse Rd","Columbus","OH","43229","","Verified","5","When You Shop At Kroger And Use Your Plus Card, Youll Earn 1 Fuel Point For Every $1 You Spend. Plus, Youll Earn 2x Fuel Points On Gift Cards, No-Contract Wireless Phones And Airtime Cards!","541105","44511003","Branch of Public Company","040.058790","-082.972682"
"Kroger","KROGER CO","John","Carrol","199 Graceland Blvd","Columbus","OH","43214","","Verified","2","Kroger Offers Thousands Of Quality Food And Household Products From Your Favorite Brands And Companies. From Fresh Produce, Meats And Seafood To Dairy, Home Goods And Pharmaceutical Needs, Kroger Is Your One Stop For Savings.","541105","44511003","Branch of Public Company","040.065017","-083.025437"
"Kroger","KROGER CO","Jason","Potes","2000 E Main St","Columbus","OH","43205","","Verified","1","Kroger Offers Thousands Of Quality Food And Household Products From Your Favorite Brands And Companies. From Fresh Produce, Meats And Seafood To Dairy, Home Goods And Pharmaceutical Needs, Kroger Is Your One Stop For Savings.","541105","44511003","Branch of Public Company","039.958258","-082.945049"
"Kroger","KROGER CO","Stu","Barton","2090 Crown Plaza Dr","Columbus","OH","43235","","Verified","3","Kroger Offers Thousands Of Quality Food And Household Products From Your Favorite Brands And Companies. From Fresh Produce, Meats And Seafood To Dairy, Home Goods And Pharmaceutical Needs, Kroger Is Your One Stop For Savings.","541105","44511003","Branch of Public Company","040.065696","-083.073423"
"Kroger","KROGER CO","Chris","Oconnor","2161 Eakin Rd","Columbus","OH","43223","","Verified","1","Kroger Offers Thousands Of Quality Food And Household Products From Your Favorite Brands And Companies. From Fresh Produce, Meats And Seafood To Dairy, Home Goods And Pharmaceutical Needs, Kroger Is Your One Stop For Savings.","541105","44511003","Branch of Public Company","039.931630","-083.050980"
"Kroger","KROGER CO","Levi","Vanreath","3417 N High St","Columbus","OH","43214","","Verified","1","Kroger Offers Thousands Of Quality Food And Household Products From Your Favorite Brands And Companies. From Fresh Produce, Meats And Seafood To Dairy, Home Goods And Pharmaceutical Needs, Kroger Is Your One Stop For Savings.","541105","44511003","Branch of Public Company","040.032045","-083.017670"
"Kroger","KROGER CO","Drew","Mcnally","3600 Soldano Blvd # A","Columbus","OH","43228","","Verified","2","Kroger Offers Thousands Of Quality Food And Household Products From Your Favorite Brands And Companies. From Fresh Produce, Meats And Seafood To Dairy, Home Goods And Pharmaceutical Needs, Kroger Is Your One Stop For Savings.","541105","44511003","Branch of Public Company","039.956866","-083.097053"
"Kroger","KROGER CO","Maurice","Suttles","3637 S High St","Columbus","OH","43207","","Verified","2","Kroger Offers Thousands Of Quality Food And Household Products From Your Favorite Brands And Companies. From Fresh Produce, Meats And Seafood To Dairy, Home Goods And Pharmaceutical Needs, Kroger Is Your One Stop For Savings.","541105","44511003","Branch of Public Company","039.887966","-083.001785"
"Kroger","KROGER CO","Lindsey","Taylor","7000 E Broad St","Columbus","OH","43213","","Verified","2","Kroger Offers Thousands Of Quality Food And Household Products From Your Favorite Brands And Companies. From Fresh Produce, Meats And Seafood To Dairy, Home Goods And Pharmaceutical Needs, Kroger Is Your One Stop For Savings.","541105","44511003","Branch of Public Company","039.984391","-082.816465"
"Kroger","KROGER CO","Robert","Rivas","299 W Bridge St","Dublin","OH","43017","","Verified","1","Kroger Offers Thousands Of Quality Food And Household Products From Your Favorite Brands And Companies. From Fresh Produce, Meats And Seafood To Dairy, Home Goods And Pharmaceutical Needs, Kroger Is Your One Stop For Savings.","541105","44511003","Branch of Public Company","040.097837","-083.122782"
"Kroger","KROGER CO","Richard","Pond","7100 Hospital Dr","Dublin","OH","43016","","Verified","2","Kroger Offers Thousands Of Quality Food And Household Products From Your Favorite Brands And Companies. From Fresh Produce, Meats And Seafood To Dairy, Home Goods And Pharmaceutical Needs, Kroger Is Your One Stop For Savings.","541105","44511003","Branch of Public Company","040.103368","-083.164322"
"Kroger","KROGER CO","Mark","Ruff","7625 Sawmill Rd","Dublin","OH","43016","","Verified","2","Kroger Offers Thousands Of Quality Food And Household Products From Your Favorite Brands And Companies. From Fresh Produce, Meats And Seafood To Dairy, Home Goods And Pharmaceutical Needs, Kroger Is Your One Stop For Savings.","541105","44511003","Branch of Public Company","040.121771","-083.092625"
"Kroger","KROGER CO","Lauren","Flury","1365 Stoneridge Dr","Gahanna","OH","43230","","Verified","3","Kroger Offers Thousands Of Quality Food And Household Products From Your Favorite Brands And Companies. From Fresh Produce, Meats And Seafood To Dairy, Home Goods And Pharmaceutical Needs, Kroger Is Your One Stop For Savings.","541105","44511003","Branch of Public Company","040.053965","-082.867466"
"Kroger","KROGER CO","Jeffrey","Bieber","300 S Hamilton Rd","Gahanna","OH","43230","","Verified","1","Kroger Offers Thousands Of Quality Food And Household Products From Your Favorite Brands And Companies. From Fresh Produce, Meats And Seafood To Dairy, Home Goods And Pharmaceutical Needs, Kroger Is Your One Stop For Savings.","541105","44511003","Branch of Public Company","040.011886","-082.864733"
"Kroger","KROGER CO","Shawn","Litton","5800 W Broad St","Galloway","OH","43119","","Verified","1","Kroger Offers Thousands Of Quality Food And Household Products From Your Favorite Brands And Companies. From Fresh Produce, Meats And Seafood To Dairy, Home Goods And Pharmaceutical Needs, Kroger Is Your One Stop For Savings.","541105","44511003","Branch of Public Company","039.951872","-083.156323"
"Kroger","KROGER CO","Tammy","Brintlinger","2474 Stringtown Rd","Grove City","OH","43123","","Verified","1","Kroger Offers Thousands Of Quality Food And Household Products From Your Favorite Brands And Companies. From Fresh Produce, Meats And Seafood To Dairy, Home Goods And Pharmaceutical Needs, Kroger Is Your One Stop For Savings.","541105","44511003","Branch of Public Company","039.882806","-083.068363"
"Kroger","KROGER CO","Michael","Smith","5965 Hoover Rd","Grove City","OH","43123","","Verified","2","Kroger Offers Thousands Of Quality Food And Household Products From Your Favorite Brands And Companies. From Fresh Produce, Meats And Seafood To Dairy, Home Goods And Pharmaceutical Needs, Kroger Is Your One Stop For Savings.","541105","44511003","Branch of Public Company","039.841416","-083.074845"
"Kroger","KROGER CO","Melinda","Geurink","6011 Groveport Rd","Groveport","OH","43125","","Verified","2","Kroger Offers Thousands Of Quality Food And Household Products From Your Favorite Brands And Companies. From Fresh Produce, Meats And Seafood To Dairy, Home Goods And Pharmaceutical Needs, Kroger Is Your One Stop For Savings.","541105","44511003","Branch of Public Company","039.853103","-082.899234"
"Kroger","KROGER CO","Jill","Furst","2525 Hilliard Rome Rd","Hilliard","OH","43026","","Verified","2","Kroger Offers Thousands Of Quality Food And Household Products From Your Favorite Brands And Companies. From Fresh Produce, Meats And Seafood To Dairy, Home Goods And Pharmaceutical Needs, Kroger Is Your One Stop For Savings.","541105","44511003","Branch of Public Company","040.002580","-083.156150"
"Kroger","KROGER CO","Aayushi","Shah","4656 Cemetery Rd # A","Hilliard","OH","43026","","Verified","3","Kroger Offers Thousands Of Quality Food And Household Products From Your Favorite Brands And Companies. From Fresh Produce, Meats And Seafood To Dairy, Home Goods And Pharmaceutical Needs, Kroger Is Your One Stop For Savings.","541105","44511003","Branch of Public Company","040.033539","-083.140526"
"Kroger","KROGER CO","Cathy","Kennedy","5161 Hamp Vlg Ctr Way","New Albany","OH","43054","","Verified","1","Kroger Offers Thousands Of Quality Food And Household Products From Your Favorite Brands And Companies. From Fresh Produce, Meats And Seafood To Dairy, Home Goods And Pharmaceutical Needs, Kroger Is Your One Stop For Savings.","541105","44511003","Branch of Public Company","040.088812","-082.825811"
"Kroger","KROGER CO","Shawn","Mchugh","6580 E Main St","Reynoldsburg","OH","43068","","Verified","1","Kroger Offers Thousands Of Quality Food And Household Products From Your Favorite Brands And Companies. From Fresh Produce, Meats And Seafood To Dairy, Home Goods And Pharmaceutical Needs, Kroger Is Your One Stop For Savings.","541105","44511003","Branch of Public Company","039.956003","-082.821790"
"Kroger","KROGER CO","Thom","Oneal","1955 Henderson Rd","Upper Arlington","OH","43220","","Verified","2","Kroger Offers Thousands Of Quality Food And Household Products From Your Favorite Brands And Companies. From Fresh Produce, Meats And Seafood To Dairy, Home Goods And Pharmaceutical Needs, Kroger Is Your One Stop For Savings.","541105","44511003","Branch of Public Company","040.054700","-083.072730"
"Kroger","KROGER CO","Danny","Clay","55 W Schrock Rd Lbby","Westerville","OH","43081","","Verified","1","Kroger Offers Thousands Of Quality Food And Household Products From Your Favorite Brands And Companies. From Fresh Produce, Meats And Seafood To Dairy, Home Goods And Pharmaceutical Needs, Kroger Is Your One Stop For Savings.","541105","44511003","Branch of Public Company","040.108360","-082.928248"
"Kroger","KROGER CO","Carla","Carnes","5991 S Sunbury Rd","Westerville","OH","43081","","Verified","1","Kroger Offers Thousands Of Quality Food And Household Products From Your Favorite Brands And Companies. From Fresh Produce, Meats And Seafood To Dairy, Home Goods And Pharmaceutical Needs, Kroger Is Your One Stop For Savings.","541105","44511003","Branch of Public Company","040.084004","-082.897263"
"Kroger","KROGER CO","Guy","Dublin","3675 E Broad St","Whitehall","OH","43213","","Verified","1","Kroger Offers Thousands Of Quality Food And Household Products From Your Favorite Brands And Companies. From Fresh Produce, Meats And Seafood To Dairy, Home Goods And Pharmaceutical Needs, Kroger Is Your One Stop For Savings.","541105","44511003","Branch of Public Company","039.972000","-082.903117"
"Kroger","KROGER CO","Paul","Tanenbaum","850 S Hamilton Rd","Whitehall","OH","43213","","Verified","2","Kroger Offers Thousands Of Quality Food And Household Products From Your Favorite Brands And Companies. From Fresh Produce, Meats And Seafood To Dairy, Home Goods And Pharmaceutical Needs, Kroger Is Your One Stop For Savings.","541105","44511003","Branch of Public Company","039.958716","-082.875645"
"Kroger","KROGER CO","Heather","Cooper","1425 Worth Ctr Dr # A","Worthington","OH","43085","","Verified","2","Kroger Offers Thousands Of Quality Food And Household Products From Your Favorite Brands And Companies. From Fresh Produce, Meats And Seafood To Dairy, Home Goods And Pharmaceutical Needs, Kroger Is Your One Stop For Savings.","541105","44511003","Branch of Public Company","040.122852","-082.979757"
"Kroger","KROGER CO","Mark","Ruff","60 Worthington Mall","Worthington","OH","43085","","Verified","1","Kroger Offers Thousands Of Quality Food And Household Products From Your Favorite Brands And Companies. From Fresh Produce, Meats And Seafood To Dairy, Home Goods And Pharmaceutical Needs, Kroger Is Your One Stop For Savings.","541105","44511003","Branch of Public Company","040.109171","-083.017810"
"Kroger New Albany Ctr","","","","5125 Hamp Vlg Ctr Way","New Albany","OH","43054","","Verified","1","Kroger New Albany Center, Your Favorite Mix Of Shops And Dining Options IN New Albany.","651201","53112008","Private","040.088812","-082.825811"
"Kroger Pharmacy","KROGER CO","Stacy","Bock","5800 W Broad St","Galloway","OH","43119","","Verified","1","Kroger Pharmacy Is Staffed With Caring Professionals Dedicated To Helping People Lead Healthier Lives. Our Pharmacists Provide More Than Just Prescriptions And Over-The-Counter Medications; They Provide Advice And Support, And Are A Trusted Source Of Information. Our Pharmacists Are Professionally Trained To Administer Vaccinations Too. Let US Help You Protect Your Health!","591205","45611009","Branch of Public Company","039.951872","-083.156323"
"Kumasi Kejtia African Market","","","","5306 Cleveland Ave","Columbus","OH","43231","KEJETIA AFRICAN MARKET INC","Verified","2","","541105","44511003","Private","040.077921","-082.951053"
"LA Bodega","","Rafaer","Pelgrin","3014 Sullivant Ave","Columbus","OH","43204","","Verified","2","","541105","44511003","Private","039.943705","-083.079339"
"LA Costena Market","","","","4738 E Main St","Columbus","OH","43213","","Verified","2","","541105","44511003","Private","039.955936","-082.871593"
"LA Michoacana","LA MICHOACANA MEXICAN MARKET","","","3160 S Hamilton Rd","Columbus","OH","43232","","Verified","5","","541105","44511003","Private","039.912520","-082.879643"
"LA Michoacana","LA MICHOACANA MEXICAN MARKET","Filiberto","Saucedo","5445 Bethel Sawmill Ctr","Columbus","OH","43235","","Verified","4","","541105","44511003","Private","040.066106","-083.093976"
"LA Michoacana","LA MICHOACANA MEXICAN MARKET","Filiberto","Saucedo","939 E Dublin Granville Rd","Columbus","OH","43229","LA MICHOACANA FRESH MARKET LLC","Verified","1","","541105","44511003","Private","040.086668","-082.994210"
"LA Michoacana Mexican Market","LA MICHOACANA MEXICAN MARKET","Liborio","Alcauter","2175 Morse Rd","Columbus","OH","43229","LA MEGA MICHOACANA","Verified","3","","541105","44511003","Private","040.059272","-082.961410"
"LA Michoacana Mexican Market","LA MICHOACANA MEXICAN MARKET","Laborao","Elcorte","3629 Sullivant Ave","Columbus","OH","43228","","Verified","1","","541105","44511003","Private","039.942019","-083.095775"
"LA Michoacana Mexican Market","LA MICHOACANA MEXICAN MARKET","Liborio","Alcauter","3881 Cleveland Ave","Columbus","OH","43224","","Verified","2","","541105","44511003","Private","040.048279","-082.955518"
"LA Michoacana Mexican Market","LA MICHOACANA MEXICAN MARKET","Gildardo","Saucedo","534 Norton Rd","Columbus","OH","43228","","Verified","1","","541105","44511003","Private","039.941044","-083.141648"
"LA Michoacana Mexican Market","LA MICHOACANA MEXICAN MARKET","Liborio","Alcauter","166 S Hamilton Rd","Whitehall","OH","43213","","Verified","1","","541105","44511003","Private","039.972393","-082.875062"
"LA-Plaza-Tapatia","","Gustavo","Salazar","255 Georgesville Rd","Columbus","OH","43228","","Verified","1","","541105","44511003","Private","039.947620","-083.112219"
"Lalibela Grocery","","Alemayehu","Woldegiorgia","1107 S Hamilton Rd","Columbus","OH","43227","","Verified","3","","542107","44524006","Private","039.953506","-082.877834"
"Lauren Stacy Berdy","","Lauren","Berdy","360 Reinhard Ave","Columbus","OH","43206","","Verified","1","","541105","44511003","Private","039.943705","-082.987164"
"Lenas Market","","Samnang","Prak","2305 W Broad St","Columbus","OH","43204","","Verified","1","","541105","44511003","Private","039.955277","-083.061689"
"Linda's Market","","Mohammed","Abu-Kaff","2165 Courtright Rd","Columbus","OH","43232","LINDA'S FOOD MARKET LLC","Verified","2","","541103","44513101","Private","039.927673","-082.899066"
"Little's Village IGA","","Ruth","Little","704 Parsons Ave","Columbus","OH","43206","LITTLE'S VILLAGE IGA","Verified","2","","541105","44511003","Private","039.949440","-082.982500"
"Livingston Market","","Aziz","Ali","1619 E Livingston Ave","Columbus","OH","43205","","Verified","2","","541105","44511003","Private","039.948748","-082.954427"
"M & J Carryout","","Paulette","Perrianna","1958 Sullivant Ave","Columbus","OH","43223","","Verified","5","","541105","44511003","Private","039.948037","-083.050779"
"M & M Food Mart","","Aziz","Khettab","5503 Norton Rd","Grove City","OH","43123","","Verified","1","","541103","44513101","Private","039.854126","-083.188156"
"M Wangi Food","","M","Wangi","934 E Hudson St","Columbus","OH","43211","","Verified","2","","541105","44511003","Private","040.014760","-082.985316"
"Madina Market Corp","","","","3444 Westerville Rd","Columbus","OH","43224","MADINA MARKET CORP","Verified","1","","531104","45511003","Private","040.039039","-082.950991"
"Magnetic Springs Bottled Water","","Sherry","Allison","1917 Joyce Ave","Columbus","OH","43219","","Verified","2","Established IN 1972, The Magnetic Springs Bottled Water Company Is A Third-Generation, Family-Owned Bottled Water Producer And Distributor Serving Columbus, Cleveland And The Entire State Of Ohio. The Company Was Named For And Originally Located IN Magnetic Springs, Ohio, Once A Popular Vacation Getaway That Was Well Known For Its Healing Springs And Bath Houses During The Late 1800s And Early 1900s. Today, With Production Facilities IN Columbus And Cleveland, We Are Well Positioned To Provide Outstanding Customer Service To The Residents And Businesses That Call Ohio Home. After Years Of Delivering Quality Water And Top-Notch Customer Service, Our Name Is Synonymous With The Best Water Delivery Service IN The State.","358598","33341504","Private","040.005206","-082.964827"
"Makola-Market","","Bismark","Akomeah","1470 Morse Rd","Columbus","OH","43229","MAKOLA MARKET LLC","Verified","1","","541105","44511003","Private","040.061397","-082.980090"
"Malik Inc","","Saeed","Hmed","4242 Morse Rd","Gahanna","OH","43230","MALIK INC","Verified","2","","554101","45712003","Private","040.057463","-082.898216"
"Maple Market","","","","5709 Maple Canyon Ave","Columbus","OH","43229","MAPLE MARKET","Verified","1","","541105","44511003","Private","040.085308","-082.960951"
"Marc's","MARC GLASSMAN INC","Kelly","Pajestka","1828 Henderson Rd","Columbus","OH","43220","","Verified","1","Marc's Is A Chain Of Department Stores That Has Been Operational Since 1979. The Company Operates More Than 50 Stores Throughout Ohio. It Offers A Range Of Products That Includes Health And Beauty, Food And General Merchandise Products. It Also Offers Automotive Products, Toys, Giftware, Serving Trays And Pet Supplies. Marc's Has Pharmacy, Produce, Meat And Closeout Departments. Its Closeout Department Offers Cookware, Electronics, Housewares, Office Supplies, Cosmetics, Stationery, Sporting Goods, Furniture And Books. IN Addition, The Company Provides A Variety Of Seasonal And Everyday Fruits. Its Stores Provide Additional Services That Include Postage Stamps, Money Orders And Prepaid Phone Cards. Marc's Maintains One Of Its Stores IN Columbus, Ohio.","541105","44511003","Private","040.056293","-083.069107"
"Marc's","MARC GLASSMAN INC","Brian","Macnara","111 Huber Village Blvd","Westerville","OH","43081","","Verified","2","Marc's Westerville, Located IN Westerville, Ohio, Is A Part Of Marc S Chain Of Full-Service Retail Department Stores. The Company Offers A Selection Of Pharmacy And Farm Produce, As Well As Weekly Specials. Through Its Produce Department, It Provides A Range Of Fresh Vegetables And Fruits, Such As Berries, Melons, Bananas, Grapes, Mangoes, Peas And Squashes. IN Addition, It Offers Meat And Dairy Products. One Of Marc's Most Popular Sections Is The Closeouts Department. The Company S Pharmacy Department Provides A Range Of Personal And Health Care Products, Such As Monitors, Meters, Syringes, Swabs, Digital Thermometers, Reading Glasses And First Aid Kits, As Well As Dietary Supplements. It Also Provides Products From Various Brands, Including Freestyle, Lifesource, Glaxosmithkline And Schering-Plough Healthcare. All Marc S Stores Are Self-Service With The Exception Of Prescription Drug Departments And Cosmetics Departments. The Company Offers Prepaid Discount Fuel Cards, Supports High School Football Team And Provides Animal Shelters To Local Canines.","541105","44511003","Private","040.102960","-082.922514"
"Market At Hilliard","","","","1888 Hilliard Rome Rd","Hilliard","OH","43026","","Verified","1","","541105","44511003","Private","039.989406","-083.148821"
"Market District","GIANT EAGLE INC","Eduardo Ber","Jimenez","2900 Stelzer Rd","Columbus","OH","43219","","Verified","1","Market District Specialty Grocery Stores Are Known For Their Wide Variety Of Local, International, And Artisanal Foods. All Our Grocery Products Are Both Foodie-Approved And Priced For Incredible Value, From Farm-Fresh Produce To Unique Packaged Goods. Market District Strives To Meet Even The Most Discerning Grocery Shoppers' Standards Of Taste And Quality, Offering A Selection Of Organic, All-Natural, And Premium Products. Plus, You Can Even Earn Rewards On Every Purchase And Save Big On Groceries OR Gas With The Myperks Loyalty Program.","541105","44511003","Private","040.031832","-082.908197"
"Market District","GIANT EAGLE INC","Robert","Arruda","3061 Kingsdale Ctr","Columbus","OH","43221","","Verified","4","Market District Specialty Grocery Stores Are Known For Their Wide Variety Of Local, International, And Artisanal Foods. All Our Grocery Products Are Both Foodie-Approved And Priced For Incredible Value, From Farm-Fresh Produce To Unique Packaged Goods. Market District Strives To Meet Even The Most Discerning Grocery Shoppers' Standards Of Taste And Quality, Offering A Selection Of Organic, All-Natural, And Premium Products. Plus, You Can Even Earn Rewards On Every Purchase And Save Big On Groceries OR Gas With The Myperks Loyalty Program.","541105","44511003","Private","040.020062","-083.058392"
"Market District","GIANT EAGLE INC","Darin","Murphy","840 W 3rd Ave","Columbus","OH","43212","","Verified","3","Market District Specialty Grocery Stores Are Known For Their Wide Variety Of Local, International, And Artisanal Foods. All Our Grocery Products Are Both Foodie-Approved And Priced For Incredible Value, From Farm-Fresh Produce To Unique Packaged Goods. Market District Strives To Meet Even The Most Discerning Grocery Shoppers' Standards Of Taste And Quality, Offering A Selection Of Organic, All-Natural, And Premium Products. Plus, You Can Even Earn Rewards On Every Purchase And Save Big On Groceries OR Gas With The Myperks Loyalty Program.","541105","44511003","Private","039.985854","-083.027818"
"Market District","GIANT EAGLE INC","Jule","Demary","6700 Perimeter Loop Rd","Dublin","OH","43017","","Verified","2","Market District Specialty Grocery Stores Are Known For Their Wide Variety Of Local, International, And Artisanal Foods. All Our Grocery Products Are Both Foodie-Approved And Priced For Incredible Value, From Farm-Fresh Produce To Unique Packaged Goods. Market District Strives To Meet Even The Most Discerning Grocery Shoppers' Standards Of Taste And Quality, Offering A Selection Of Organic, All-Natural, And Premium Products. Plus, You Can Even Earn Rewards On Every Purchase And Save Big On Groceries OR Gas With The Myperks Loyalty Program.","541105","44511003","Private","040.102763","-083.155888"
"Market District","GIANT EAGLE INC","Nathan","Stebleton","4001 Britton Pkwy","Hilliard","OH","43026","","Verified","3","Market District Specialty Grocery Stores Are Known For Their Wide Variety Of Local, International, And Artisanal Foods. All Our Grocery Products Are Both Foodie-Approved And Priced For Incredible Value, From Farm-Fresh Produce To Unique Packaged Goods. Market District Strives To Meet Even The Most Discerning Grocery Shoppers' Standards Of Taste And Quality, Offering A Selection Of Organic, All-Natural, And Premium Products. Plus, You Can Even Earn Rewards On Every Purchase And Save Big On Groceries OR Gas With The Myperks Loyalty Program.","541105","44511003","Private","040.034418","-083.133464"
"Market District","GIANT EAGLE INC","Carla","Alexander","5461 New Albany Rd W","New Albany","OH","43054","","Verified","3","Market District Specialty Grocery Stores Are Known For Their Wide Variety Of Local, International, And Artisanal Foods. All Our Grocery Products Are Both Foodie-Approved And Priced For Incredible Value, From Farm-Fresh Produce To Unique Packaged Goods. Market District Strives To Meet Even The Most Discerning Grocery Shoppers' Standards Of Taste And Quality, Offering A Selection Of Organic, All-Natural, And Premium Products. Plus, You Can Even Earn Rewards On Every Purchase And Save Big On Groceries OR Gas With The Myperks Loyalty Program.","541105","44511003","Private","040.093208","-082.825646"
"Market District Express","GIANT EAGLE INC","Ryan","Daniels","2250 E Main St","Bexley","OH","43209","","Verified","1","Market District Specialty Grocery Stores Are Known For Their Wide Variety Of Local, International, And Artisanal Foods. All Our Grocery Products Are Both Foodie-Approved And Priced For Incredible Value, From Farm-Fresh Produce To Unique Packaged Goods. Market District Strives To Meet Even The Most Discerning Grocery Shoppers' Standards Of Taste And Quality, Offering A Selection Of Organic, All-Natural, And Premium Products. Plus, You Can Even Earn Rewards On Every Purchase And Save Big On Groceries OR Gas With The Myperks Loyalty Program.","541105","44511003","Private","039.957832","-082.939204"
"Market District Pharmacy","GIANT EAGLE INC","Darin","Murphy","840 W 3rd Ave","Columbus","OH","43212","","Verified","3","Refill OR Transfer Your Prescriptions Online With Market District Pharmacy, Plus Explore Services Like Immunizations, Pet Medications And More.","591205","45611009","Private","039.985854","-083.027818"
"Market District Supermarket","GIANT EAGLE INC","","","4747 Sawmill Rd","Columbus","OH","43220","","Verified","3","Market District Specialty Grocery Stores Are Known For Their Wide Variety Of Local, International, And Artisanal Foods. All Our Grocery Products Are Both Foodie-Approved And Priced For Incredible Value, From Farm-Fresh Produce To Unique Packaged Goods. Market District Strives To Meet Even The Most Discerning Grocery Shoppers' Standards Of Taste And Quality, Offering A Selection Of Organic, All-Natural, And Premium Products. Plus, You Can Even Earn Rewards On Every Purchase And Save Big On Groceries OR Gas With The Myperks Loyalty Program.","541105","44511003","Private","040.064107","-083.095824"
"Marshall Shell Mini Mart","SHELL USA INC","","","2190 S Hamilton Rd","Columbus","OH","43232","","Verified","1","","554101","45712003","Private","039.929753","-082.878654"
"Mcguffey Market","","Abdullah","Elwawi","1066 E Hudson St","Columbus","OH","43211","","Verified","2","","541105","44511003","Private","040.014659","-082.981902"
"Mecca Market","","","","2256 S Hamilton Rd","Columbus","OH","43232","","Verified","1","","541105","44511003","Private","039.928514","-082.878695"
"Medina Restaurant","","Amadou","Diallo","3116 S Hamilton Rd","Columbus","OH","43232","MEDINA MARKET & RESTAURANT INC","Verified","5","","581208","72251117","Private","039.912520","-082.879643"
"Mediterranean Foods Imports","","","","2647 N High St","Columbus","OH","43202","","Verified","4","","541105","44511003","Private","040.016219","-083.012138"
"Mega Food Mart","","","","4734 Cleveland Ave","Columbus","OH","43231","","Verified","3","","541105","44511003","Private","040.066006","-082.952098"
"Meijer","MEIJER INC","Carolyn","Vallette","1661 Hilliard Rome Rd","Columbus","OH","43228","","Verified","1","Meijer Is Your Family-Owned, One-Stop Shop IN Columbus, OH That's Been Offering Our Neighbors Great Food, Great Brands, And Great Value Since 1934. Stop IN For The Freshest Produce Delivered Daily From Local Growers, Custom-Cut Quality Meats, Seafood Delivered 6 Days A Week, Bread Baked Fresh Daily, Plus Low Prices Across 40+ Departments, From Premium Pet Brands To The Latest Fashions For The Entire Family. Plus, Save Even More With Weekly Specials And Mperks.","541105","44511003","Private","039.981250","-083.148020"
"Meijer","MEIJER INC","Kevin","Dicler","5050 N Hamilton Rd","Columbus","OH","43230","","Verified","2","Meijer Is Your Family-Owned, One-Stop Shop IN Columbus, OH That's Been Offering Our Neighbors Great Food, Great Brands, And Great Value Since 1934. Stop IN For The Freshest Produce Delivered Daily From Local Growers, Custom-Cut Quality Meats, Seafood Delivered 6 Days A Week, Bread Baked Fresh Daily, Plus Low Prices Across 40+ Departments, From Premium Pet Brands To The Latest Fashions For The Entire Family. Plus, Save Even More With Weekly Specials And Mperks.","541105","44511003","Private","040.060870","-082.860104"
"Meijer","MEIJER INC","Dessie","Szklany","6175 Sawmill Rd","Dublin","OH","43017","","Verified","2","Meijer Is Your Family-Owned, One-Stop Shop IN Dublin, OH That's Been Offering Our Neighbors Great Food, Great Brands, And Great Value Since 1934. Stop IN For The Freshest Produce Delivered Daily From Local Growers, Custom-Cut Quality Meats, Seafood Delivered 6 Days A Week, Bread Baked Fresh Daily, Plus Low Prices Across 40+ Departments, From Premium Pet Brands To The Latest Fashions For The Entire Family. Plus, Save Even More With Weekly Specials And Mperks.","541105","44511003","Private","040.092602","-083.094177"
"Meijer","MEIJER INC","Brian","Glover","2811 London Groveport Rd","Grove City","OH","43123","","Verified","2","Meijer Is Your Family-Owned, One-Stop Shop IN Grove City, OH That's Been Offering Our Neighbors Great Food, Great Brands, And Great Value Since 1934. Stop IN For The Freshest Produce Delivered Daily From Local Growers, Custom-Cut Quality Meats, Seafood Delivered 6 Days A Week, Bread Baked Fresh Daily, Plus Low Prices Across 40+ Departments, From Premium Pet Brands To The Latest Fashions For The Entire Family. Plus, Save Even More With Weekly Specials And Mperks.","541105","44511003","Private","039.836620","-083.080722"
"Meijer","MEIJER INC","Jonathan","Jones","8000 E Broad St Frnt","Reynoldsburg","OH","43068","","Verified","2","Meijer Is Your Family-Owned, One-Stop Shop IN Reynoldsburg, OH That's Been Offering Our Neighbors Great Food, Great Brands, And Great Value Since 1934. Stop IN For The Freshest Produce Delivered Daily From Local Growers, Custom-Cut Quality Meats, Seafood Delivered 6 Days A Week, Bread Baked Fresh Daily, Plus Low Prices Across 40+ Departments, From Premium Pet Brands To The Latest Fashions For The Entire Family. Plus, Save Even More With Weekly Specials And Mperks.","541105","44511003","Private","039.988260","-082.788156"
"Meijer Bakery","MEIJER INC","Carolyn","Vallette","1661 Hilliard Rd","Columbus","OH","43228","","Verified","2","Discover The Freshest, Tastiest Baked Goods IN The Neighborhood, From Cookies, Cakes And Pies To The Finest Artisanal Breads Baked Fresh Daily. Plus, Order Your Custom Cake, From Fabulous Birthday And Holiday Designs To Licensed Characters From Your Favorite Movies, Toys And Tv Shows.","546102","31181102","Private","039.935867","-083.138631"
"Meijer Bakery","MEIJER INC","Kevin","Dicler","5050 N Hamilton Rd","Columbus","OH","43230","","Verified","2","Discover The Freshest, Tastiest Baked Goods IN The Neighborhood, From Cookies, Cakes And Pies To The Finest Artisanal Breads Baked Fresh Daily. Plus, Order Your Custom Cake, From Fabulous Birthday And Holiday Designs To Licensed Characters From Your Favorite Movies, Toys And Tv Shows.","546102","31181102","Private","040.060870","-082.860104"
"Meijer Bakery","MEIJER INC","Dessie","Szklany","6175 Sawmill Rd","Dublin","OH","43017","","Verified","2","Discover The Freshest, Tastiest Baked Goods IN The Neighborhood, From Cookies, Cakes And Pies To The Finest Artisanal Breads Baked Fresh Daily. Plus, Order Your Custom Cake, From Fabulous Birthday And Holiday Designs To Licensed Characters From Your Favorite Movies, Toys And Tv Shows.","546102","31181102","Private","040.092602","-083.094177"
"Meijer Bakery","MEIJER INC","Brian","Glover","2811 London Groveport Rd","Grove City","OH","43123","","Verified","2","Discover The Freshest, Tastiest Baked Goods IN The Neighborhood, From Cookies, Cakes And Pies To The Finest Artisanal Breads Baked Fresh Daily. Plus, Order Your Custom Cake, From Fabulous Birthday And Holiday Designs To Licensed Characters From Your Favorite Movies, Toys And Tv Shows.","546102","31181102","Private","039.836620","-083.080722"
"Meijer Bakery","MEIJER INC","Jonathan","Jones","8000 E Broad St","Reynoldsburg","OH","43068","","Verified","2","Discover The Freshest, Tastiest Baked Goods IN The Neighborhood, From Cookies, Cakes And Pies To The Finest Artisanal Breads Baked Fresh Daily. Plus, Order Your Custom Cake, From Fabulous Birthday And Holiday Designs To Licensed Characters From Your Favorite Movies, Toys And Tv Shows.","546102","31181102","Private","039.988260","-082.788156"
"Mi Pais Supper Market","","Felix","Pelgrin","1105 S Hamilton Rd","Columbus","OH","43227","","Verified","3","","541105","44511003","Private","039.953506","-082.877834"
"Midwest Food & Grocers Inc","","","","2552 Lockbourne Rd","Columbus","OH","43207","MIDWEST FOOD & GROCERS INC","Verified","2","","541105","44511003","Private","039.913275","-082.965781"
"Mike's Carryout","","","","1436 S Hamilton Rd","Columbus","OH","43227","","Verified","1","","581208","72251117","Private","039.945635","-082.877295"
"Milhem Market","","Marwan","Milhem","1562 Watkins Rd","Columbus","OH","43207","MILHEM MARKET","Verified","1","","541103","44513101","Private","039.904902","-082.953437"
"Minute Plus Carryout","","","","3530 Sullivant Ave","Columbus","OH","43204","","Verified","3","","541105","44511003","Private","039.943061","-083.093068"
"N & N Supermarket","","Omar","Kash","2240 Sullivant Ave","Columbus","OH","43223","","Verified","2","","541105","44511003","Private","039.946647","-083.058862"
"Najah Market","","Ahmed","Abdul","2930 Westerville Rd","Columbus","OH","43224","NAJAH MARKET LLC","Verified","1","","541105","44511003","Private","040.028013","-082.959006"
"Noor Grocery Store","","","","3442 Briggs Rd # 2","Columbus","OH","43204","","Verified","2","","541105","44511003","Private","039.933937","-083.088972"
"Norm's Market","","Rafqat","Ali","240 Main St","Groveport","OH","43125","","Verified","1","","541105","44511003","Private","039.853625","-082.893202"
"North Africa Foods","","","","3850 E Main St","Columbus","OH","43213","","Verified","2","","541105","44511003","Private","039.956443","-082.895439"
"North Campus Food Mart","","Sam","Tao","2424 N High St","Columbus","OH","43202","","Verified","6","","541105","44511003","Private","040.011487","-083.010043"
"North Market Cook Ware","","Kay","Davenport","59 Spruce St","Columbus","OH","43215","","Verified","1","We Are Butchers, Bakers And Candy Makers. We Are Fishmongers, Greengrocers And Restaurateurs. We Grow, Catch, Find, Make, Produce, Distribute, Cook, Create And Invent Our Wares. We Are Columbus' Only Public Market And An Incubator For Small Businesses. And We Are The Place To Shop, Eat, Mingle And People-Watch. The North Market Is Home To Dozens Of Unique, Independent Merchants And Farmers Who Deliver Personal And Personable Service Every Day Of The Week.","543101","44523003","Private","039.971885","-083.004326"
"Ohio Citrus Juice Co Inc","","Steve","Clark","2201 Hardy Parkway St","Grove City","OH","43123","OHIO CITRUS JUICE CO INC","Verified","1","","543104","44523005","Private","039.912738","-083.038886"
"Ohio Grocers Assn","","Kristin","Mullins","1335 Dublin Rd # 207b","Columbus","OH","43215","","Verified","2","","861102","81391002","Private","039.979896","-083.063056"
"Olde Oak","","Carolyn","Maloney","62 Parsons Ave","Columbus","OH","43215","","Verified","1","","581301","72241001","Private","039.962958","-082.981411"
"Park To Stop","","Wei","Li","2757 Festival Ln","Dublin","OH","43017","","Verified","1","","541105","44511003","Private","040.092380","-083.089570"
"Parville Market","","Chuck","Bhatt","5705 Parkville St","Columbus","OH","43229","","Verified","5","","541105","44511003","Private","040.085352","-082.957487"
"Pat's Hague Steel Market","","","","154 N Hague Ave","Columbus","OH","43204","HAGUE & STEEL MARKET LTD","Verified","4","","541105","44511003","Private","039.958268","-083.074699"
"Patel Brothers","PATEL BROTHERS","Jayesh","Patel","6600 Sawmill Rd","Columbus","OH","43235","","Verified","1","Patel Brothers' Mission Is To Bring The Best Ingredients From Around The World, Right To Your Doorstep. With A Wide Variety Of Authentic Regional Grocery, Spices, And International Produce. We Strive To Connect People With The Familiar Flavors Of India.","541105","44511003","Private","040.103144","-083.089425"
"Plaza Grocery & Meat","","","","1050 Mount Vernon Ave","Columbus","OH","43203","","Verified","2","","541105","44511003","Private","039.972554","-082.974318"
"Plaza International Foods","","Xhevaire","Hasani","3120 Olentangy River Rd","Columbus","OH","43202","","Verified","2","","541105","44511003","Private","040.024674","-083.025629"
"Poindexter Village Market","","Ala","Alrawahneh","1228 E Long St","Columbus","OH","43203","POINDEXTER MARKET INC","Verified","3","","541105","44511003","Private","039.968857","-082.968538"
"Prasuesak Asian American Mkt","","Fypaphay","Prasuesak","1659 Lockbourne Rd","Columbus","OH","43207","","Verified","3","","541103","44513101","Private","039.931774","-082.964993"
"Quaker Foods","PEPSICO INC","","","3880 Groveport Rd","Obetz","OH","43207","","Verified","1","","204301","31123001","Branch of Public Company","039.887800","-082.952648"
"Quick & Easy Mart Inc","","Sam","Iqeal","4197 Cleveland Ave","Columbus","OH","43224","QUICK & EASY MART INC","Verified","1","","541103","44513101","Private","040.054759","-082.953878"
"Quick Mart","","","","4366 Karl Rd","Columbus","OH","43224","","Verified","5","","541103","44513101","Private","040.056089","-082.975203"
"Raisin Rack Natural Food Mkt","","Doug","Bean","2545 W Schrock Rd","Westerville","OH","43081","RAISIN RACK","Verified","1","Founded IN 1978, Raisin Rack Natural Food Market Is A Locally Owned Shop That Offers Fresh Fruits And Vegetables, Organic Groceries, Gluten-Free Foods And Dairy Products. It Provides A Selection Of Meat, Vegan, Beverages, Bulk Grains, Nuts, Seeds And Herbs. The Market Also Features Supplements, Vitamins, Minerals, Herbals And Personal Care Products. It Offers Treatments That Are Designed To Support The Natural Healing Processes Of The Body. Raisin Rack Natural Food Market Features Products From The Barleans, Be Natural, Aqua Flora, Country Life, Health Plus, Mori-Nu, Organic Valley, Tofurky And Turtle Island Food Brands. It Also Provides An Online Calculator For Health Estimation. The Market Additionally Offers Online Vegetarian And Low-Fat Health Recipes. It Maintains Operations IN The Cities Of Canton, Westerville And Columbus IN Ohio.","514949","42449042","Private","040.109666","-082.948015"
"RJ Schinner","R J SCHINNER CO INC","Aaron","Macgillis","4001 Gantz Rd # E","Grove City","OH","43123","","Verified","1","","509998","42399004","Private","039.881860","-083.058143"
"RMM Halal Meat","","","","3196 Cleveland Ave","Columbus","OH","43224","","Verified","1","","541105","44511003","Private","040.033027","-082.963380"
"Rossco Market","","","","2500 Sullivant Ave","Columbus","OH","43204","ROSCOS MARKET","Verified","5","","541105","44511003","Private","039.945224","-083.065559"
"Russian Home","","Val","Petrosian","6007 E Main St","Columbus","OH","43213","","Verified","1","","541105","44511003","Private","039.952892","-082.835636"
"S & G Mfg Group LLC","","Joshua","Ball","4830 Northwest Pkwy","Hilliard","OH","43026","S & G MFG GROUP LLC","Verified","2","S&G Manufacturing Group Serves Metal Fabrication Needs IN Small- OR Large-Volume Quantities, Customized OR Production And IN A Variety Of Metals. The Company Creates Metal Products Using Modern Systems Of Fabrication. Computerized Numerically Controlled Turret Punch Presses, Hydraulic Shears And Multiaxis Press Brakes Help IN The Development Of Precise Parts Production And Duplication. The Ability To Also Offer Electrical, Plumbing And Refrigeration Assembly Distinguishes S&G From Many Of Its Competitors. S&G Manufacturing Group Has A Location IN Hilliard, Ohio.","179104","23891054","Private","040.039318","-083.147414"
"Sahara Halal Market","","","","3350 Cleveland Ave","Columbus","OH","43224","SAHARA HALAL MARKET","Verified","1","","541105","44511003","Private","040.036140","-082.961584"
"Sallys Market","","Salah","Mubarak","740 Sullivant Ave","Columbus","OH","43222","","Verified","2","","541105","44511003","Private","039.954070","-083.019352"
"Sam's Club","WALMART INC","Bile","Abdulle","3950 Morse Rd","Columbus","OH","43219","","Verified","2","Visit Your Columbus Sam's Club. Members Enjoy Exceptional Warehouse Club Values On Superior Products And Services.","531110","45521101","Branch of Public Company","040.060458","-082.911364"
"Sam's Club","WALMART INC","Vanessa","Montijo","5870 Sawmill Rd","Dublin","OH","43017","","Verified","1","Visit Your Dublin Sam's Club. Members Enjoy Exceptional Warehouse Club Values On Superior Products And Services.","531110","45521101","Branch of Public Company","040.086527","-083.088109"
"Sam's Club","WALMART INC","Michael","Byrer","1755 Hilliard Rome Rd","Hilliard","OH","43026","","Verified","2","Visit Your Hilliard Sam's Club. Members Enjoy Exceptional Warehouse Club Values On Superior Products And Services.","531110","45521101","Branch of Public Company","039.986940","-083.153824"
"Santiago Supermarket","","","","5431 Roberts Rd","Hilliard","OH","43026","SANTIAGO SUPERMARKET","Verified","1","","541105","44511003","Private","040.002462","-083.151694"
"Saraga International Grocery","","","","1265 Morse Rd","Columbus","OH","43229","SARAGA INTERNATIONAL GROCERY","Verified","1","","541105","44511003","Private","040.059817","-082.985325"
"Save-A-Lot","MORAN FOODS LLC","Jim","Ledley","1254 Morse Rd","Columbus","OH","43229","","Verified","2","","541105","44511003","Private","040.061914","-082.985611"
"Save-A-Lot","MORAN FOODS LLC","Monte","Neuhaus","2054 Lockbourne Rd","Columbus","OH","43207","","Verified","1","","541105","44511003","Private","039.923214","-082.962858"
"Save-A-Lot","MORAN FOODS LLC","","","2200 Mock Rd","Columbus","OH","43219","","Verified","3","","541105","44511003","Private","040.012058","-082.949605"
"Save-A-Lot","MORAN FOODS LLC","Jody","Gardner","3434 Cleveland Ave","Columbus","OH","43224","","Verified","1","","541105","44511003","Private","040.037971","-082.961791"
"Save-A-Lot","MORAN FOODS LLC","","","4930 W Broad St","Columbus","OH","43228","","Verified","4","","541105","44511003","Private","039.952986","-083.132071"
"Save-A-Lot","MORAN FOODS LLC","Steve","Coughlin","677 Harrisburg Pike","Columbus","OH","43223","","Verified","1","","541105","44511003","Private","039.943698","-083.039413"
"Save-A-Lot","127 WALL HOLDINGS LLC","","","8101 Pendleton Pike","New Albany","OH","43054","","Verified","2","","541105","44511003","Private","040.103165","-082.824360"
"Save-A-Lot","MORAN FOODS LLC","Anna","Marquez","6308 E Livingston Ave","Reynoldsburg","OH","43068","","Verified","2","","541105","44511003","Private","039.943500","-082.827194"
"Save-A-Lot","MORAN FOODS LLC","Brian","Lesbauch","573 S Yearling Rd","Whitehall","OH","43213","","Verified","4","Working For A Grocery Wholesaler, Bill Moran Identified An Opportunity For Small Grocers To Compete Against Emerging Mega Stores. He Opened A Single Save-A-Lot Store IN 1977, Which Has Grown Into One Of The Leading U.S. Grocery Chains, Operating More Than 1,150 Stores IN Urban, Rural And Suburban Areas. The Stores Offer A Range Of Save-A-Lot-Branded Products, As Well As Farm-Fresh Fruits And Vegetables, Beef, Pork, Poultry, Dairy Products And Nonfood Items. It Also Offers A Selection Of Merchandise Items, Including Housewares And Hardware. Save-A-Lot Sells Products Of Several Brands, Such As Totino, Banquet, Michelina, Wylwood, Mcdaniel And Kurtz. The Company Supports Various Children's Welfare Organizations And Programs. It Also Designs And Implements Recognized Programs For Educating Associates About Federal Support Plans. Additionally, It Partners With The United Way And Various Other National Organizations. It Is A Wholly Owned Subsidiary Of Supervalu, A Fortune 100 Company And One Of The Largest Grocery Retailing Companies IN The United States.","541105","44511003","Private","039.962149","-082.886514"
"Saveway Way Market","","Adam","Khan","1370 Sullivant Ave","Columbus","OH","43223","SAVEWAY MARKET","Verified","3","","541105","44511003","Private","039.950950","-083.035893"
"Schuman's Meats","","John","Schuman","1440 Harrisburg Pike","Columbus","OH","43223","","Verified","2","At Schuman's Meats We Offer Nothing But The Highest Quality Meat Products. Whether You Want Beef, Chicken, OR Pork, Our Professionals Will Actually Walk You Through The Store To Help You Find What You Want. We Offer Special Cuts, As Well As Lunchmeats And Cheeses. We Aim To Please And Show Our Customers That There's A Difference IN Quality And Taste Between Meat That Has Been Properly Dried Out And Meat That's Been Boxed. Whatever Meat You Are Looking For Our Meat Market Can Provide You With Quality Products And Services.","542107","44524006","Private","039.928408","-083.053467"
"Shop & Go","","","","3951 E Livingston Ave","Columbus","OH","43227","","Verified","2","","541103","44513101","Private","039.944933","-082.890136"
"Smartway's Inc","","Hasan","Idzei","3663 Karl Rd","Columbus","OH","43224","SMARTWAY'S INC","Verified","1","","541105","44511003","Private","040.041324","-082.977973"
"Soussy Market","","Mohammad","Awad","1950 N 4th St # M","Columbus","OH","43201","","Verified","2","","541105","44511003","Private","040.003020","-082.998140"
"South Asian Bazaar","","","","1995 Morse Rd","Columbus","OH","43229","SOUTH ASIAN BAZAAR","Verified","5","","541105","44511003","Private","040.059475","-082.966427"
"Speedway","7-ELEVEN INC","","","1055 S Hamilton Rd","Columbus","OH","43227","","Verified","3","","541103","44513101","Private","039.954758","-082.877435"
"Speedway","7-ELEVEN INC","Donald","Marcum","1103 Morse Rd","Columbus","OH","43229","","Verified","2","","541103","44513101","Private","040.060973","-082.993750"
"Speedway","7-ELEVEN INC","Karen","Bingaman","1165 S High St","Columbus","OH","43206","","Verified","3","","541103","44513101","Private","039.937920","-082.996538"
"Speedway","7-ELEVEN INC","Tom","Pope","1505 Harrisburg Pike","Columbus","OH","43223","","Verified","1","","541103","44513101","Private","039.927224","-083.056940"
"Speedway","7-ELEVEN INC","Ruth","Yarbor","1790 Henderson Rd","Columbus","OH","43220","","Verified","1","","541103","44513101","Private","040.054655","-083.067476"
"Speedway","7-ELEVEN INC","","","2510 N High St","Columbus","OH","43202","","Verified","5","","541103","44513101","Private","040.013670","-083.010533"
"Speedway","7-ELEVEN INC","Roy","Russ","2965 E Main St","Columbus","OH","43209","","Verified","3","","541103","44513101","Private","039.956317","-082.919327"
"Speedway","7-ELEVEN INC","Danielle","Glenn","3233 Refugee Rd","Columbus","OH","43232","","Verified","2","","541103","44513101","Private","039.917194","-082.915009"
"Speedway","7-ELEVEN INC","Benjamin","Price","3616 Riverside Dr","Columbus","OH","43221","","Verified","6","","541103","44513101","Private","040.027505","-083.090828"
"Speedway","7-ELEVEN INC","Evelyn","Graves","3860 S High St","Columbus","OH","43207","","Verified","1","","541103","44513101","Private","039.882531","-083.000076"
"Speedway","7-ELEVEN INC","Beth","Wrod","3974 Cleveland Ave","Columbus","OH","43224","","Verified","2","","541103","44513101","Private","040.050438","-082.953245"
"Speedway","7-ELEVEN INC","Steve","Carpenter","4901 E Main St","Columbus","OH","43213","","Verified","1","","541103","44513101","Private","039.954890","-082.866590"
"Speedway","7-ELEVEN INC","Andrew","Salt","5735 Maple Canyon Ave","Columbus","OH","43229","","Verified","1","","541103","44513101","Private","040.085838","-082.960907"
"Speedway","7-ELEVEN INC","Rosie","Vigilante","6425 E Broad St","Columbus","OH","43213","","Verified","3","","541103","44513101","Private","039.980338","-082.831291"
"Speedway","7-ELEVEN INC","Jon","Kusko","825 Worthington Woods Blvd","Columbus","OH","43085","","Verified","3","","541103","44513101","Private","040.118297","-082.994910"
"Speedway","7-ELEVEN INC","Ron","Desmond","5984 Sawmill Rd","Dublin","OH","43017","","Verified","1","","541103","44513101","Private","040.089028","-083.091252"
"Speedway","7-ELEVEN INC","Conrad","Madrigal","2567 Walcutt Rd","Hilliard","OH","43026","","Verified","1","","541103","44513101","Private","040.003873","-083.139896"
"Speedway","7-ELEVEN INC","","","3611 Fishinger Blvd","Hilliard","OH","43026","","Verified","2","","541103","44513101","Private","040.027596","-083.117322"
"Speedway","7-ELEVEN INC","Miles","Jackson","2775 Brice Rd","Reynoldsburg","OH","43068","","Verified","1","","541103","44513101","Private","039.923102","-082.830273"
"Star Carryout","","","","1565 N 4th St","Columbus","OH","43201","STAR CARRY OUT","Verified","2","","541103","44513101","Private","039.995158","-082.999318"
"Starbucks","STARBUCKS CORP","Brad","Griffis","4747 Sawmill Rd","Columbus","OH","43220","","Verified","3","","581228","72251505","Branch of Public Company","040.064107","-083.095824"
"Stelzer Food Market","","Seras","Alhisah","755 Stelzer Rd","Columbus","OH","43219","STELZER FOOD EXPRESS INC","Verified","3","","541105","44511003","Private","039.987886","-082.916167"
"Stewart Market","","Seyd","Hishen","691 Stewart Ave","Columbus","OH","43206","","Verified","2","","581206","72251301","Private","039.941050","-082.977726"
"Stop & Shop","","Norman","Taha","1858 Lockbourne Rd","Columbus","OH","43207","","Verified","1","","541105","44511003","Private","039.927458","-082.964636"
"Sunrise Asian Amer Supermarket","","Zhi Guan","Zheng","1920 Henderson Rd","Columbus","OH","43220","","Verified","1","","541105","44511003","Private","040.056293","-083.069107"
"Sunrise International Market","","Leonard","Jarvis","4030 W Broad St","Columbus","OH","43228","SUNRISE INTERNATIONAL MARKET","Verified","2","","541105","44511003","Private","039.955600","-083.108690"
"Sunrise Market","","Matt","Panov","375 S Yearling Rd","Columbus","OH","43213","SUNRISE MARKET","Verified","3","","541105","44511003","Private","039.967678","-082.885800"
"Sunshine Grocery LLC","","Yadab","Poutel","4583 Morse Centre Rd","Columbus","OH","43229","SUNSHINE GROCERY LLC","Verified","1","","541105","44511003","Private","040.062135","-082.964167"
"Sunshine International Market","","","","5880 N Meadows Blvd # C","Columbus","OH","43229","","Verified","3","","541105","44511003","Private","040.085781","-082.992217"
"Super Food Mart","","Roger","Patel","3166 N High St","Columbus","OH","43202","","Verified","1","","541103","44513101","Private","040.026862","-083.014111"
"Super Mercado Los Portales","","","","1924 Brice Rd","Reynoldsburg","OH","43068","SUPER MERCADO LOS PORTALES","Verified","2","","541105","44511003","Private","039.941021","-082.828053"
"Super Saver","","Ashish","Patel","555 S Hamilton Rd","Columbus","OH","43213","","Verified","1","","541103","44513101","Private","039.964162","-082.876460"
"Super Stores & Supermarkets","","Waldo","Tewolde","3420 Bexvie Ave","Columbus","OH","43227","","Verified","2","","531104","45511003","Private","039.935962","-082.910479"
"Tadi","","","","2007 E Dublin Granville Rd","Columbus","OH","43229","","Verified","1","","514101","42442005","Private","040.085968","-082.963760"
"Tamarack Sunoco","SUNOCO LP","Jeff","Hussion","1886 Tamarack Cir S","Columbus","OH","43229","","Verified","4","","554101","45712003","Branch of Public Company","040.075693","-082.967245"
"Tara International Mart LLC","","Om","Missi","1480 Morse Rd","Columbus","OH","43229","TARA INTERNATIONAL MART LLC","Verified","1","","551107","44111007","Private","040.061397","-082.980090"
"Target","TARGET CORP","Chris","Barnett","1717 Olentangy River Rd","Columbus","OH","43212","","Verified","2","Visit Your Target IN Columbus, OH For All Your Shopping Needs Including Clothes, Lawn & Patio, Baby Gear, Electronics, Groceries, Toys, Games, Shoes, Sporting Goods And More. We Serve Our Guests IN 49 States Nationwide And At Target.Com. We'Re Committed To Providing A Fun And Convenient Shopping Experience, With Unique Products At Affordable Prices. Since 1946, The Corporation Has Given 5 Percent Of Its Income Through Community Grants And Programs Like Take Charge Of Education. Today, That Giving Equals More Than $4 Million A Week.","531102","45511001","Branch of Public Company","039.993842","-083.027498"
"Target","TARGET CORP","Greg","Gear","4199 Morse Xing","Columbus","OH","43219","","Verified","1","Visit Your Target IN Columbus, OH For All Your Shopping Needs Including Clothes, Lawn & Patio, Baby Gear, Electronics, Groceries, Toys, Games, Shoes, Sporting Goods And More. We Serve Our Guests IN 49 States Nationwide And At Target.Com. We'Re Committed To Providing A Fun And Convenient Shopping Experience, With Unique Products At Affordable Prices. Since 1946, The Corporation Has Given 5 Percent Of Its Income Through Community Grants And Programs Like Take Charge Of Education. Today, That Giving Equals More Than $4 Million A Week.","531102","45511001","Branch of Public Company","040.056687","-082.921343"
"Target","TARGET CORP","Kasey","Cook","55 Graceland Blvd","Columbus","OH","43214","","Verified","2","Visit Your Target IN Columbus, OH For All Your Shopping Needs Including Clothes, Lawn & Patio, Baby Gear, Electronics, Groceries, Toys, Games, Shoes, Sporting Goods And More. We Serve Our Guests IN 49 States Nationwide And At Target.Com. We'Re Committed To Providing A Fun And Convenient Shopping Experience, With Unique Products At Affordable Prices. Since 1946, The Corporation Has Given 5 Percent Of Its Income Through Community Grants And Programs Like Take Charge Of Education. Today, That Giving Equals More Than $4 Million A Week.","531102","45511001","Branch of Public Company","040.064957","-083.021259"
"Target","TARGET CORP","Martha","Hoctor","6000 Sawmill Rd","Dublin","OH","43017","","Verified","1","Visit Your Target IN Dublin, OH For All Your Shopping Needs Including Clothes, Lawn & Patio, Baby Gear, Electronics, Groceries, Toys, Games, Shoes, Sporting Goods And More. We Serve Our Guests IN 49 States Nationwide And At Target.Com. We'Re Committed To Providing A Fun And Convenient Shopping Experience, With Unique Products At Affordable Prices. Since 1946, The Corporation Has Given 5 Percent Of Its Income Through Community Grants And Programs Like Take Charge Of Education. Today, That Giving Equals More Than $4 Million A Week.","531102","45511001","Branch of Public Company","040.089803","-083.089331"
"Target","TARGET CORP","Sarah","Tussing","4144 Buckeye Pkwy","Grove City","OH","43123","","Verified","2","Visit Your Target IN Grove City, OH For All Your Shopping Needs Including Clothes, Lawn & Patio, Baby Gear, Electronics, Groceries, Toys, Games, Shoes, Sporting Goods And More. We Serve Our Guests IN 49 States Nationwide And At Target.Com. We'Re Committed To Providing A Fun And Convenient Shopping Experience, With Unique Products At Affordable Prices. Since 1946, The Corporation Has Given 5 Percent Of Its Income Through Community Grants And Programs Like Take Charge Of Education. Today, That Giving Equals More Than $4 Million A Week.","531102","45511001","Branch of Public Company","039.876879","-083.036694"
"Target","TARGET CORP","Danielle","Seigrist","1970 Hilliard Rome Rd","Hilliard","OH","43026","","Verified","1","Visit Your Target IN Hilliard, OH For All Your Shopping Needs Including Clothes, Lawn & Patio, Baby Gear, Electronics, Groceries, Toys, Games, Shoes, Sporting Goods And More. We Serve Our Guests IN 49 States Nationwide And At Target.Com. We'Re Committed To Providing A Fun And Convenient Shopping Experience, With Unique Products At Affordable Prices. Since 1946, The Corporation Has Given 5 Percent Of Its Income Through Community Grants And Programs Like Take Charge Of Education. Today, That Giving Equals More Than $4 Million A Week.","531102","45511001","Branch of Public Company","039.991211","-083.148814"
"Target","TARGET CORP","Alex","Buchan","4211 Trueman Blvd","Hilliard","OH","43026","","Verified","2","Visit Your Target IN Hilliard, OH For All Your Shopping Needs Including Clothes, Lawn & Patio, Baby Gear, Electronics, Groceries, Toys, Games, Shoes, Sporting Goods And More. We Serve Our Guests IN 49 States Nationwide And At Target.Com. We'Re Committed To Providing A Fun And Convenient Shopping Experience, With Unique Products At Affordable Prices. Since 1946, The Corporation Has Given 5 Percent Of Its Income Through Community Grants And Programs Like Take Charge Of Education. Today, That Giving Equals More Than $4 Million A Week.","531102","45511001","Branch of Public Company","040.038381","-083.123949"
"Target","TARGET CORP","Ashley","Merise","8100 E Broad St","Reynoldsburg","OH","43068","","Verified","1","Visit Your Target IN Reynoldsburg, OH For All Your Shopping Needs Including Clothes, Lawn & Patio, Baby Gear, Electronics, Groceries, Toys, Games, Shoes, Sporting Goods And More. We Serve Our Guests IN 49 States Nationwide And At Target.Com. We'Re Committed To Providing A Fun And Convenient Shopping Experience, With Unique Products At Affordable Prices. Since 1946, The Corporation Has Given 5 Percent Of Its Income Through Community Grants And Programs Like Take Charge Of Education. Today, That Giving Equals More Than $4 Million A Week.","531102","45511001","Branch of Public Company","039.988449","-082.784735"
"Target","TARGET CORP","Craig","Bailey","3955 E Broad St","Whitehall","OH","43213","","Verified","1","Visit Your Target IN Whitehall, OH For All Your Shopping Needs Including Clothes, Lawn & Patio, Baby Gear, Electronics, Groceries, Toys, Games, Shoes, Sporting Goods And More. We Serve Our Guests IN 49 States Nationwide And At Target.Com. We'Re Committed To Providing A Fun And Convenient Shopping Experience, With Unique Products At Affordable Prices. Since 1946, The Corporation Has Given 5 Percent Of Its Income Through Community Grants And Programs Like Take Charge Of Education. Today, That Giving Equals More Than $4 Million A Week.","531102","45511001","Branch of Public Company","039.970864","-082.895252"
"Tensuke Market","","Takeshi","Takenaka","1167 Old Henderson Rd","Columbus","OH","43220","TENSUKE MARKET","Verified","3","","514101","42442005","Private","040.050546","-083.051115"
"Thind Petroleum","","Sukhwinder","Thind","1570 Morse Rd","Columbus","OH","43229","","Verified","1","","554101","45712003","Private","040.060993","-082.977773"
"Three C Food Mart","","Ibrahim","Hejazin","3725 Karl Rd","Columbus","OH","43224","","Verified","1","","541103","44513101","Private","040.042730","-082.977715"
"Trabue Food Mart","","Mano","Patel","4111 Trabue Rd","Columbus","OH","43228","","Verified","2","","541105","44511003","Private","039.986951","-083.107733"
"Trader Joe's","TRADER JOE'S","Genevieve","Gulledge","3888 Townsfair Way","Columbus","OH","43219","","Verified","1","Trader Joe's Is A Privately Held Chain Of Specialty Grocery Stores Headquartered IN Monrovia, Calif. The Company Operates More Than 280 Stores IN Various Cities Throughout The United States, Including Columbus, Ohio. Founded IN 1958, Trader Joe S Sells A Variety Of Products, Such As Gourmet, Organic, Vegetarian, Frozen And Imported Foods, As Well As Domestic And Imported Wines. Its Alternative Food Items Include Breads, Cereals, Eggs And Other Products. Trader Joe S Also Offers Nonfood Items, Including Personal Hygiene Products, Household Cleaners, Vitamins, Pet Food Items, And Plants And Flowers. The Company Is Also One Of The Exclusive Retailers Of Charles Shaw Wine.","541105","44511003","Private","040.049344","-082.918221"
"Trader Joe's","TRADER JOE'S","Lucas","Schmidt","6355 Sawmill Rd","Dublin","OH","43017","","Verified","2","Trader Joe's Is A Privately Held Chain Of Specialty Grocery Stores Headquartered IN Monrovia, Calif. The Company Operates More Than 280 Stores IN Various Cities Throughout The United States, Including Dublin, Ohio. Founded IN 1958, Trader Joe S Sells A Variety Of Products, Such As Gourmet, Organic, Vegetarian, Frozen And Imported Foods, As Well As Domestic And Imported Wines. Its Alternative Food Items Include Breads, Cereals, Eggs And Other Products. Trader Joe S Also Offers Nonfood Items, Including Personal Hygiene Products, Household Cleaners, Vitamins, Pet Food Items, And Plants And Flowers. The Company Is Also One Of The Exclusive Retailers Of Charles Shaw Wine.","541105","44511003","Private","040.096375","-083.093199"
"Tropical Nut & Fruit","","Alicia","Lehota","3150 Urbancrest Industrial Dr","Urbancrest","OH","43123","TROPICAL NUT & FRUIT","Verified","1","","206401","31135201","Private","039.903145","-083.080738"
"Turkey Hill Minit Market","EG AMERICA LLC","Joe","Southwick","5350 Tuttle Crossing Blvd","Dublin","OH","43016","","Verified","3","","541103","44513101","Private","040.075638","-083.141703"
"Turkey Hill Minit Market","EG AMERICA LLC","Dj","Stephens","6231 Avery Rd","Dublin","OH","43016","","Verified","3","","541103","44513101","Private","040.095170","-083.158780"
"United Dairy Farmers","UNITED DAIRY FARMERS INC","","","1043 W Broad St","Columbus","OH","43222","","Verified","2","United Dairy Farmers, Operates More Than 175 Ice Cream Parlors, Convenience Stores, And Gas Stations.With Our U-Drive Program, You'Ll Never Pay Full Price For Gas Again And You'Ll Save Inside On Everyday Purchases.Stop IN And Shop With Us. Youll Be Surprised What You Can Find. From Our Premium Grade Coffee, To Our Farm-Fresh Dairy Products To Our Hand-Dipped Ice Cream Treatsand So Much Moretheres No Place Like Udf.","541103","44513101","Private","039.957155","-083.025820"
"United Dairy Farmers","UNITED DAIRY FARMERS INC","Melissa","Perry","1188 N Wilson Rd","Columbus","OH","43204","","Verified","3","United Dairy Farmers, Operates More Than 175 Ice Cream Parlors, Convenience Stores, And Gas Stations.With Our U-Drive Program, You'Ll Never Pay Full Price For Gas Again And You'Ll Save Inside On Everyday Purchases.Stop IN And Shop With Us. Youll Be Surprised What You Can Find. From Our Premium Grade Coffee, To Our Farm-Fresh Dairy Products To Our Hand-Dipped Ice Cream Treatsand So Much Moretheres No Place Like Udf.","541103","44513101","Private","039.977956","-083.101068"
"United Dairy Farmers","UNITED DAIRY FARMERS INC","Nicky","Chyrsler","1680 N High St","Columbus","OH","43201","","Verified","3","United Dairy Farmers, Operates More Than 175 Ice Cream Parlors, Convenience Stores, And Gas Stations.With Our U-Drive Program, You'Ll Never Pay Full Price For Gas Again And You'Ll Save Inside On Everyday Purchases.Stop IN And Shop With Us. Youll Be Surprised What You Can Find. From Our Premium Grade Coffee, To Our Farm-Fresh Dairy Products To Our Hand-Dipped Ice Cream Treatsand So Much Moretheres No Place Like Udf.","541103","44513101","Private","039.996606","-083.007126"
"United Dairy Farmers","UNITED DAIRY FARMERS INC","Jim","Martin","327 E Hudson St","Columbus","OH","43202","","Verified","2","United Dairy Farmers, Operates More Than 175 Ice Cream Parlors, Convenience Stores, And Gas Stations.With Our U-Drive Program, You'Ll Never Pay Full Price For Gas Again And You'Ll Save Inside On Everyday Purchases.Stop IN And Shop With Us. Youll Be Surprised What You Can Find. From Our Premium Grade Coffee, To Our Farm-Fresh Dairy Products To Our Hand-Dipped Ice Cream Treatsand So Much Moretheres No Place Like Udf.","541103","44513101","Private","040.014786","-083.001859"
"United Dairy Farmers","UNITED DAIRY FARMERS INC","","","3728 Karl Rd","Columbus","OH","43224","","Verified","3","United Dairy Farmers, Operates More Than 175 Ice Cream Parlors, Convenience Stores, And Gas Stations.With Our U-Drive Program, You'Ll Never Pay Full Price For Gas Again And You'Ll Save Inside On Everyday Purchases.Stop IN And Shop With Us. Youll Be Surprised What You Can Find. From Our Premium Grade Coffee, To Our Farm-Fresh Dairy Products To Our Hand-Dipped Ice Cream Treatsand So Much Moretheres No Place Like Udf.","541103","44513101","Private","040.042968","-082.977005"
"United Dairy Farmers","UNITED DAIRY FARMERS INC","Eric","Bailey","4775 Sunbury Rd","Columbus","OH","43219","","Verified","1","United Dairy Farmers, Operates More Than 175 Ice Cream Parlors, Convenience Stores, And Gas Stations.With Our U-Drive Program, You'Ll Never Pay Full Price For Gas Again And You'Ll Save Inside On Everyday Purchases.Stop IN And Shop With Us. Youll Be Surprised What You Can Find. From Our Premium Grade Coffee, To Our Farm-Fresh Dairy Products To Our Hand-Dipped Ice Cream Treatsand So Much Moretheres No Place Like Udf.","541103","44513101","Private","040.057695","-082.923869"
"United Dairy Farmers","UNITED DAIRY FARMERS INC","Debbie","Zimmerly","5370 N High St","Columbus","OH","43214","","Verified","2","United Dairy Farmers, Operates More Than 175 Ice Cream Parlors, Convenience Stores, And Gas Stations.With Our U-Drive Program, You'Ll Never Pay Full Price For Gas Again And You'Ll Save Inside On Everyday Purchases.Stop IN And Shop With Us. Youll Be Surprised What You Can Find. From Our Premium Grade Coffee, To Our Farm-Fresh Dairy Products To Our Hand-Dipped Ice Cream Treatsand So Much Moretheres No Place Like Udf.","541103","44513101","Private","040.072038","-083.018545"
"United Dairy Farmers","UNITED DAIRY FARMERS INC","Roger","Williams","993 King Ave","Columbus","OH","43212","","Verified","1","United Dairy Farmers, Your Neighborhood Store That Combines The Nostalgia Of An Old Fashioned Ice Cream Parlor With All The Benefits Of A Modern Convenience Store.  Whether Its Starting Off Your Mornings With A Hot Cup Of Udf Coffee Co. Coffee, Filling Up Your Car With Udf Gas, OR Filling-IN With A Gallon Of Udf's Farm Fresh Milk; Our Commitment To Quality Products, Fast, Friendly Service, And Clean Bright Stores Is Reflected IN Everything We Do.","541103","44513101","Private","039.990820","-083.033260"
"United Dairy Farmers","UNITED DAIRY FARMERS INC","Don","Kuhns","3555 Broadway","Grove City","OH","43123","","Verified","1","United Dairy Farmers, Operates More Than 175 Ice Cream Parlors, Convenience Stores, And Gas Stations.With Our U-Drive Program, You'Ll Never Pay Full Price For Gas Again And You'Ll Save Inside On Everyday Purchases.Stop IN And Shop With Us. Youll Be Surprised What You Can Find. From Our Premium Grade Coffee, To Our Farm-Fresh Dairy Products To Our Hand-Dipped Ice Cream Treatsand So Much Moretheres No Place Like Udf.","541103","44513101","Private","039.891728","-083.086201"
"United Dairy Farmers","UNITED DAIRY FARMERS INC","Sherri","Brown","6525 Tussing Rd","Reynoldsburg","OH","43068","","Verified","1","United Dairy Farmers, Operates More Than 175 Ice Cream Parlors, Convenience Stores, And Gas Stations.With Our U-Drive Program, You'Ll Never Pay Full Price For Gas Again And You'Ll Save Inside On Everyday Purchases.Stop IN And Shop With Us. Youll Be Surprised What You Can Find. From Our Premium Grade Coffee, To Our Farm-Fresh Dairy Products To Our Hand-Dipped Ice Cream Treatsand So Much Moretheres No Place Like Udf.","541103","44513101","Private","039.926674","-082.825417"
"United Dairy Farmers","UNITED DAIRY FARMERS INC","Wesley","Fox","4374 E Broad St","Whitehall","OH","43213","","Verified","1","United Dairy Farmers, Operates More Than 175 Ice Cream Parlors, Convenience Stores, And Gas Stations.With Our U-Drive Program, You'Ll Never Pay Full Price For Gas Again And You'Ll Save Inside On Everyday Purchases.Stop IN And Shop With Us. Youll Be Surprised What You Can Find. From Our Premium Grade Coffee, To Our Farm-Fresh Dairy Products To Our Hand-Dipped Ice Cream Treatsand So Much Moretheres No Place Like Udf.","541103","44513101","Private","039.975423","-082.885061"
"United Food Mart","","","","2805 S High St","Columbus","OH","43207","UNITED FOOD DISCOUNT LLC","Verified","1","","541105","44511003","Private","039.904112","-082.995883"
"USA Grocery","","Murad","Jallaq","2500 Sullivant Ave","Columbus","OH","43204","USA GROCERY INC","Verified","5","","541105","44511003","Private","039.945224","-083.065559"
"Utz Quality Foods","UTZ BRANDS INC","","","2805 Charter St","Columbus","OH","43228","","Verified","1","","209698","31191905","Branch of Public Company","040.009721","-083.136484"
"Venky's Spice House","","","","5398 Roberts Rd","Hilliard","OH","43026","","Verified","1","","541105","44511003","Private","040.004535","-083.152081"
"Vincenzo's Convenient Elegance","","Louis","Bonfante","6393 Sawmill Rd","Dublin","OH","43017","VINCENZO'S","Verified","2","Our Italian Market Has A Lot To Offer. We Know That Our Customers Are Busy And Do Not Always Have Time To Cook Dinner, But Still Want Great Homemade Quality Italian Food. Everything Is Made Fresh Using The Old World Process And Nothing But Top Notch Ingredients. You'Ll Love Our Fresh Made Breads, Hand-Rolled Meatballs, And All The Other Great Italian Favorites On Our Menu. We Are Also Open For Lunch, So You Can Skip The Usual Take Out.While You Are Picking Up Your Meal, Browse Our Wide Variety Of Wines. We Will Make Sure To Help You Pick The Bottle That Matches Your Order And Your Preferences.","541105","44511003","Private","040.097156","-083.093437"
"Vista Brothers Asian Grocery","","Tara","Vista","4625 Maize Rd","Columbus","OH","43224","BISTA BROTHERS ASIAN GROCERY LLC","Verified","2","","541105","44511003","Private","040.059975","-082.987977"
"Walmart Supercenter","WALMART INC","John","Gussler","6674 Winchester Blvd","Canal Winchester","OH","43110","","Verified","1","Shop Your Local Walmart For A Wide Selection Of Items IN Electronics, Home Furniture & Appliances, Toys, Clothing, Baby Gear, Video Games, And More - Helping You Save Money And Live Better.","531102","45511001","Branch of Public Company","039.854640","-082.826026"
"Walmart Supercenter","WALMART INC","Richard","Lundquist","1221 Georgesville Rd","Columbus","OH","43228","","Verified","2","Shop Your Local Walmart For A Wide Selection Of Items IN Electronics, Home Furniture & Appliances, Toys, Clothing, Baby Gear, Video Games, And More - Helping You Save Money And Live Better.","531102","45511001","Branch of Public Company","039.926930","-083.120554"
"Walmart Supercenter","WALMART INC","Daniela","Rodriguez","2700 Bethel Rd","Columbus","OH","43220","","Verified","2","Shop Your Local Walmart For A Wide Selection Of Items IN Electronics, Home Furniture & Appliances, Toys, Clothing, Baby Gear, Video Games, And More - Helping You Save Money And Live Better.","531102","45511001","Branch of Public Company","040.067172","-083.089916"
"Walmart Supercenter","WALMART INC","Tara","Lester","3900 Morse Rd","Columbus","OH","43219","","Verified","2","Shop Your Local Walmart For A Wide Selection Of Items IN Electronics, Home Furniture & Appliances, Toys, Clothing, Baby Gear, Video Games, And More - Helping You Save Money And Live Better.","531102","45511001","Branch of Public Company","040.060508","-082.913130"
"Walmart Supercenter","WALMART INC","Kory","Shinlever","5200 Westpointe Plaza Dr","Columbus","OH","43228","","Verified","1","Shop Your Local Walmart For A Wide Selection Of Items IN Electronics, Home Furniture & Appliances, Toys, Clothing, Baby Gear, Video Games, And More - Helping You Save Money And Live Better.","531102","45511001","Branch of Public Company","039.983176","-083.145067"
"Walmart Supercenter","WALMART INC","Richard","Lundquist","5900 Britton Pkwy","Dublin","OH","43016","","Verified","3","Shop Your Local Walmart For A Wide Selection Of Items IN Electronics, Home Furniture & Appliances, Toys, Clothing, Baby Gear, Video Games, And More - Helping You Save Money And Live Better.","531102","45511001","Branch of Public Company","040.074028","-083.137618"
"Walmart Supercenter","WALMART INC","Stan","Fulk","7730 Sawmill Rd","Dublin","OH","43016","","Verified","1","Shop Your Local Walmart For A Wide Selection Of Items IN Electronics, Home Furniture & Appliances, Toys, Clothing, Baby Gear, Video Games, And More - Helping You Save Money And Live Better.","531102","45511001","Branch of Public Company","040.123491","-083.087117"
"Walmart Supercenter","WALMART INC","John","Kent","1693 Stringtown Rd","Grove City","OH","43123","","Verified","2","Shop Your Local Walmart For A Wide Selection Of Items IN Electronics, Home Furniture & Appliances, Toys, Clothing, Baby Gear, Video Games, And More - Helping You Save Money And Live Better.","531102","45511001","Branch of Public Company","039.875256","-083.042694"
"Walmart Supercenter","WALMART INC","Jennifer","Wingo","50 E Schrock Rd","Westerville","OH","43081","","Verified","1","Shop Your Local Walmart For A Wide Selection Of Items IN Electronics, Home Furniture & Appliances, Toys, Clothing, Baby Gear, Video Games, And More - Helping You Save Money And Live Better.","531102","45511001","Branch of Public Company","040.111316","-082.923926"
"Walmart Supercenter","WALMART INC","Tony","Vussa","3657 E Main St","Whitehall","OH","43213","","Verified","2","Shop Your Local Walmart For A Wide Selection Of Items IN Electronics, Home Furniture & Appliances, Toys, Clothing, Baby Gear, Video Games, And More - Helping You Save Money And Live Better.","531102","45511001","Branch of Public Company","039.954135","-082.900505"
"Wayne Market","","Khalid","Kurdi","2403 W Broad St","Columbus","OH","43204","","Verified","3","","541105","44511003","Private","039.955141","-083.064556"
"Weber Road Market","","Mohammad","Ali","900 E Weber Rd","Columbus","OH","43211","","Verified","3","","541105","44511003","Private","040.024126","-082.988012"
"Weilands Fine Meats Inc","","Jennifer","Williams","3600 Indianola Ave","Columbus","OH","43214","WEILANDS FINE MEATS INC","Verified","1","Success Continued Under Their Leadership And Brought The Expansion To The New Location IN August Of 1999, Where It Is Still Strong And Growing. Our Mission Statement Is Plain And Simple, 'to Provide Our Customers With High Quality Meat, Seafood, And Products IN Order To Provide The Best Customer Service.' Since 1961 We Have Added The Largest And Only Strictly Fresh Seafood Department IN The Area, Enlarged Produce, Added Wine, Liquor And Beer And A Host Of Other New And Exciting Products. Weiland's Has Had Its Roots IN Clintonville Since Its Inception And Has Been A Big Supporter Of Its Chamber And Community Events. Weiland's Customers That Have Moved From The Area Still Come Back And Enjoy The Personal Touch That We Offer. For Many, We Are On A First Name Basis Not Only With Them, But Their Kids As Well. Weiland's Reputation Extends Down Into The Generations And We Hear All Of The Time How Their Parents OR Grandparents Shopped Here. Please Indulge Yourself And Visit And Enjoy The Experience Of Personalized Service And Care. You Are Always Welcome Here.","541105","44511003","Private","040.037253","-082.999219"
"West Gate Intl Market","","","","6050 Joneswood Dr","Hilliard","OH","43026","","Verified","3","","651201","53112008","Private","040.011578","-083.176462"
"Wheatland Food Market","","Ahmeb","Rawahneh","1432 Mount Vernon Ave","Columbus","OH","43203","WHEATLAND FOOD INC","Verified","1","","541105","44511003","Private","039.973895","-082.964151"
"Whitehall Market LLC","","Monjed","Humeidan","1110 Watkins Rd # C","Columbus","OH","43207","WHITEHALL MARKET LLC","Verified","2","","541105","44511003","Private","039.905513","-082.965448"
"Whole Foods Market","AMAZON.COM INC","Kathleen","Tozzi","3670 W Dublin Granville Rd","Columbus","OH","43235","","Verified","1","Welcome To Columbus, OH Whole Foods Market! Whole Foods Is The Leading Retailer Of Natural And Organic Foods Uniquely Positioned As America's Healthiest Grocery Store.","541105","44511003","Branch of Public Company","040.098525","-083.086439"
"Whole Foods Market","AMAZON.COM INC","Tiffany","Nolan","4100 Easton Gateway Dr","Columbus","OH","43219","","Verified","1","Welcome To Columbus, OH Whole Foods Market! Whole Foods Is The Leading Retailer Of Natural And Organic Foods Uniquely Positioned As America's Healthiest Grocery Store.","541105","44511003","Branch of Public Company","040.057035","-082.909530"
"Whole Foods Market","AMAZON.COM INC","Eric","Aquirre","1555 W Lane Ave","Upper Arlington","OH","43221","","Verified","1","Welcome To Upper Arlington, OH Whole Foods Market! Whole Foods Is The Leading Retailer Of Natural And Organic Foods Uniquely Positioned As America's Healthiest Grocery Store.","541105","44511003","Branch of Public Company","040.006556","-083.053044"
"Wine & Brew Emporium","","B","Patel","6154 S Sunbury Rd","Westerville","OH","43081","WINE & BREW EMPORIUM","Verified","2","","541105","44511003","Private","040.084630","-082.895268"
"Yao Lee Oriental Supermarket","","Bee","Stintel","2848 N High St","Columbus","OH","43202","YAO-LEE ORIENTAL SUPERMARKET CORP","Verified","2","","541105","44511003","Private","040.020403","-083.012359"
"Ybb Market","","Sam","Ali","2900 Westerville Rd","Columbus","OH","43224","YBB MARKET","Verified","1","","541105","44511003","Private","040.026991","-082.959753"
"Yummy Nummyz LLC","","Alicia R","Dean","6956 E Broad St Pmb 414","Columbus","OH","43213","YUMMY NUMMYZ LLC","Verified","2","","541105","44511003","Private","039.984391","-082.816465"
